NPI,Name,Physician,Specialty,Entity_Name,ECP_Category,Street,City,State,County,Zip,Networks,Carrier,name_location_carrier,locations
1013911437,Northeast Colorado Health Department,Non-Physician,006 Primary Care - Nurse Practitioner,Northeast Colorado Health Department,Family Planning Providers,77 Main Ave,Akron,CO,Washington,80720-1439,"CON002, CON003",Anthem BCBS,"Northeast Colorado Health Department: 77 Main Ave, Akron, CO, 80720-1439: Anthem BCBS","77 Main Ave, Akron, CO, 80720-1439"
1881743631,Planned Parenthood of the Rocky Mountains - Alamosa,Physician,002 Family Medicine,"Planned Parenthood of the Rocky Mountains, Inc.",Family Planning Providers,1560 12th St,Alamosa,CO,Alamosa,81101-3709,"CON002, CON003",Anthem BCBS,"Planned Parenthood of the Rocky Mountains - Alamosa: 1560 12th St, Alamosa, CO, 81101-3709: Anthem BCBS","1560 12th St, Alamosa, CO, 81101-3709"
1881743631,Planned Parenthood of the Rocky Mountains - Alamosa,Physician,002 Family Medicine,"Planned Parenthood of the Rocky Mountains, Inc.", Rural Health Clinics,1560 12th St,Alamosa,CO,Alamosa,81101-3709,"CON002, CON003",Anthem BCBS,"Planned Parenthood of the Rocky Mountains - Alamosa: 1560 12th St, Alamosa, CO, 81101-3709: Anthem BCBS","1560 12th St, Alamosa, CO, 81101-3709"
1881743631,Planned Parenthood of the Rocky Mountains - Alamosa,Physician,002 Family Medicine,"Planned Parenthood of the Rocky Mountains, Inc.", Sexually Transmitted Disease Clinics,1560 12th St,Alamosa,CO,Alamosa,81101-3709,"CON002, CON003",Anthem BCBS,"Planned Parenthood of the Rocky Mountains - Alamosa: 1560 12th St, Alamosa, CO, 81101-3709: Anthem BCBS","1560 12th St, Alamosa, CO, 81101-3709"
1205957032,Community Health Services Inc. Family Planning Program,Physician,001 General Practice,Community Health Services Inc.,Family Planning Providers,405 Castle Creek Rd,Aspen,CO,Pitkin,81611-3125,"CON002, CON003",Anthem BCBS,"Community Health Services Inc. Family Planning Program: 405 Castle Creek Rd, Aspen, CO, 81611-3125: Anthem BCBS","405 Castle Creek Rd, Aspen, CO, 81611-3125"
1730295296,Rocky Mountain Youth Clinics - Laredo,Physician,101 Pediatrics - Routine/Primary Care,Rocky Mountain Youth Clinics,101 Pediatrics - Routine/Primary Care,1350 Laredo St,Aurora,CO,Arapahoe,80011-7455,"CON002, CON003",Anthem BCBS,"Rocky Mountain Youth Clinics - Laredo: 1350 Laredo St, Aurora, CO, 80011-7455: Anthem BCBS","1350 Laredo St, Aurora, CO, 80011-7455"
1730295296,Rocky Mountain Youth Clinics - Crawford,Physician,101 Pediatrics - Routine/Primary Care,Rocky Mountain Youth Clinics,101 Pediatrics - Routine/Primary Care,1600 Florence St,Aurora,CO,Adams,80010-2130,"CON002, CON003",Anthem BCBS,"Rocky Mountain Youth Clinics - Crawford: 1600 Florence St, Aurora, CO, 80010-2130: Anthem BCBS","1600 Florence St, Aurora, CO, 80010-2130"
1821010448,AVONDALE CLINIC,Non-Physician,006 Primary Care - Nurse Practitioner,PUEBLO COMMUNITY HEALTH CENTER,Federally Qualified Health Centers,328 Avondale Blvd,Avondale,CO,Pueblo,81022-8700,"CON002, CON003",Anthem BCBS,"AVONDALE CLINIC: 328 Avondale Blvd, Avondale, CO, 81022-8700: Anthem BCBS","328 Avondale Blvd, Avondale, CO, 81022-8700"
1487803383,Beacon Center for Infectious Diseases (ryan white providers),Physician,002 Family Medicine,Boulder Community Health (Hospital),Ryan White Providers,4800 Riverbend Rd,Boulder,CO,Boulder,80301-2636,"CON002, CON003",Anthem BCBS,"Beacon Center for Infectious Diseases (ryan white providers): 4800 Riverbend Rd, Boulder, CO, 80301-2636: Anthem BCBS","4800 Riverbend Rd, Boulder, CO, 80301-2636"
1639595986,School Based Health Center - Summit High School,Non-Physician,006 Primary Care - Nurse Practitioner,"Summit Community Care Clinic, Inc.", Family Planning Providers,16201 Hwy 9,Breckenridge,CO,Summit,80424,"CON002, CON003",Anthem BCBS,"School Based Health Center - Summit High School: 16201 Hwy 9, Breckenridge, CO, 80424: Anthem BCBS","16201 Hwy 9, Breckenridge, CO, 80424"
1639595986,School Based Health Center - Summit High School,Non-Physician,006 Primary Care - Nurse Practitioner,"Summit Community Care Clinic, Inc.", Federally Qualified Health Centers,16201 Hwy 9,Breckenridge,CO,Summit,80424,"CON002, CON003",Anthem BCBS,"School Based Health Center - Summit High School: 16201 Hwy 9, Breckenridge, CO, 80424: Anthem BCBS","16201 Hwy 9, Breckenridge, CO, 80424"
1336245828,"Children's Hospital Colorado Orthopedic Care, Centennial",Physician,025 Orthopedic Surgery,Children's Hospital Colorado,Outpatient Hospital Clinics,9094 E Mineral Cir,Centennial,CO,Arapahoe,80112-7201,"CON002, CON003",Anthem BCBS,"Children's Hospital Colorado Orthopedic Care, Centennial: 9094 E Mineral Cir, Centennial, CO, 80112-7201: Anthem BCBS","9094 E Mineral Cir, Centennial, CO, 80112-7201"
1790998953,Cheyenne County Public Health Office,Non-Physician,000 OTHER,"VALLEY WIDE HEALTH SYSTEMS, INC.",Federally Qualified Health Centers,615 N 5th St W,Cheyenne Wells,CO,Cheyenne,80810,"CON002, CON003",Anthem BCBS,"Cheyenne County Public Health Office: 615 N 5th St W, Cheyenne Wells, CO, 80810: Anthem BCBS","615 N 5th St W, Cheyenne Wells, CO, 80810"
1639200702,Kids First Health Care at Lester Arnold,Non-Physician,006 Primary Care - Nurse Practitioner,Kids First Health Care,006 Primary Care - Nurse Practitioner,6500 E 72nd Ave,Commerce City,CO,Adams,80022-2006,"CON002, CON003",Anthem BCBS,"Kids First Health Care at Lester Arnold: 6500 E 72nd Ave, Commerce City, CO, 80022-2006: Anthem BCBS","6500 E 72nd Ave, Commerce City, CO, 80022-2006"
1881743631,Planned Parenthood of the Rocky Mountains--Cortez,Physician,002 Family Medicine,"Planned Parenthood of the Rocky Mountains, Inc.",Family Planning Providers,20 W North St,Cortez,CO,Montezuma,81321-3117,"CON002, CON003",Anthem BCBS,"Planned Parenthood of the Rocky Mountains--Cortez: 20 W North St, Cortez, CO, 81321-3117: Anthem BCBS","20 W North St, Cortez, CO, 81321-3117"
1881743631,Planned Parenthood of the Rocky Mountains--Cortez,Physician,002 Family Medicine,"Planned Parenthood of the Rocky Mountains, Inc.", Rural Health Clinics,20 W North St,Cortez,CO,Montezuma,81321-3117,"CON002, CON003",Anthem BCBS,"Planned Parenthood of the Rocky Mountains--Cortez: 20 W North St, Cortez, CO, 81321-3117: Anthem BCBS","20 W North St, Cortez, CO, 81321-3117"
1881743631,Planned Parenthood of the Rocky Mountains--Cortez,Physician,002 Family Medicine,"Planned Parenthood of the Rocky Mountains, Inc.", Sexually Transmitted Disease Clinics,20 W North St,Cortez,CO,Montezuma,81321-3117,"CON002, CON003",Anthem BCBS,"Planned Parenthood of the Rocky Mountains--Cortez: 20 W North St, Cortez, CO, 81321-3117: Anthem BCBS","20 W North St, Cortez, CO, 81321-3117"
1730295296,Rocky Mountain Youth Clinics - Southwest Open School,Non-Physician,006 Primary Care - Nurse Practitioner,Rocky Mountain Youth Clinics,006 Primary Care - Nurse Practitioner,401 N Dolores Rd,Cortez,CO,Montezuma,81321-4213,"CON002, CON003",Anthem BCBS,"Rocky Mountain Youth Clinics - Southwest Open School: 401 N Dolores Rd, Cortez, CO, 81321-4213: Anthem BCBS","401 N Dolores Rd, Cortez, CO, 81321-4213"
1770512964,Delta County Health Department,Non-Physician,000 OTHER,Delta County Health Department,Family Planning Providers,255 W 6th St,Delta,CO,Delta,81416-1626,"CON002, CON003",Anthem BCBS,"Delta County Health Department: 255 W 6th St, Delta, CO, 81416-1626: Anthem BCBS","255 W 6th St, Delta, CO, 81416-1626"
1770512964,Delta County Health Department,Non-Physician,000 OTHER,Delta County Health Department, Sexually Transmitted Disease Clinics,255 W 6th St,Delta,CO,Delta,81416-1626,"CON002, CON003",Anthem BCBS,"Delta County Health Department: 255 W 6th St, Delta, CO, 81416-1626: Anthem BCBS","255 W 6th St, Delta, CO, 81416-1626"
1770512964,Delta County Health Department,Non-Physician,000 OTHER,Delta County Health Department, Tuberculosis Clinics,255 W 6th St,Delta,CO,Delta,81416-1626,"CON002, CON003",Anthem BCBS,"Delta County Health Department: 255 W 6th St, Delta, CO, 81416-1626: Anthem BCBS","255 W 6th St, Delta, CO, 81416-1626"
1699930651,JEFFERSON HIGH SCHOOL KIDS & TEENS HEALTH CENTER,Non-Physician,000 OTHER,"METRO COMMUNITY PROVIDER NETWORK, INC.",Federally Qualified Health Centers,2305 Pierce St,Edgewater,CO,Jefferson,80214-1031,"CON002, CON003",Anthem BCBS,"JEFFERSON HIGH SCHOOL KIDS & TEENS HEALTH CENTER: 2305 Pierce St, Edgewater, CO, 80214-1031: Anthem BCBS","2305 Pierce St, Edgewater, CO, 80214-1031"
1881743631,Planned Parenthood of the Rocky Mountains - Granby,Physician,002 Family Medicine,"Planned Parenthood of the Rocky Mountains, Inc.",Family Planning Providers,236 Agate Ave.,Granby,CO,Grand,80446-0088,"CON002, CON003",Anthem BCBS,"Planned Parenthood of the Rocky Mountains - Granby: 236 Agate Ave., Granby, CO, 80446-0088: Anthem BCBS","236 Agate Ave., Granby, CO, 80446-0088"
1881743631,Planned Parenthood of the Rocky Mountains - Granby,Physician,002 Family Medicine,"Planned Parenthood of the Rocky Mountains, Inc.", Sexually Transmitted Disease Clinics,236 Agate Ave.,Granby,CO,Grand,80446-0088,"CON002, CON003",Anthem BCBS,"Planned Parenthood of the Rocky Mountains - Granby: 236 Agate Ave., Granby, CO, 80446-0088: Anthem BCBS","236 Agate Ave., Granby, CO, 80446-0088"
1699716027,St. Mary's Family Medicine,Physician,001 General Practice,St. Mary's Hospital and Medical Center,Ryan White Providers,2698 Patterson Rd,Grand Junction,CO,Mesa,81506-8818,"CON002, CON003",Anthem BCBS,"St. Mary's Family Medicine: 2698 Patterson Rd, Grand Junction, CO, 81506-8818: Anthem BCBS","2698 Patterson Rd, Grand Junction, CO, 81506-8818"
1295041598,SUNRISE NORTH RANGE CLINIC,Physician,002 Family Medicine,SUNRISE COMMUNITY HEALTH,Federally Qualified Health Centers,1300 N 17th Ave,Greeley,CO,Weld,80631-9584,"CON002, CON003",Anthem BCBS,"SUNRISE NORTH RANGE CLINIC: 1300 N 17th Ave, Greeley, CO, 80631-9584: Anthem BCBS","1300 N 17th Ave, Greeley, CO, 80631-9584"
1316244692,WELD COUNTY HEALTH DEPT. PRENATAL CLINIC,Non-Physician,006 Primary Care - Nurse Practitioner,SUNRISE COMMUNITY HEALTH,Federally Qualified Health Centers,1551 N 17th Ave,Greeley,CO,Weld,80631-9400,"CON002, CON003",Anthem BCBS,"WELD COUNTY HEALTH DEPT. PRENATAL CLINIC: 1551 N 17th Ave, Greeley, CO, 80631-9400: Anthem BCBS","1551 N 17th Ave, Greeley, CO, 80631-9400"
1881743631,Planned Parenthood of the Rocky Mountains--Greeley,Physician,016 Gynecology (OB/GYN),"Planned Parenthood of the Rocky Mountains, Inc.",Family Planning Providers,3487 W 10th St,Greeley,CO,Weld,80634-5361,"CON002, CON003",Anthem BCBS,"Planned Parenthood of the Rocky Mountains--Greeley: 3487 W 10th St, Greeley, CO, 80634-5361: Anthem BCBS","3487 W 10th St, Greeley, CO, 80634-5361"
1881743631,Planned Parenthood of the Rocky Mountains--Greeley,Physician,016 Gynecology (OB/GYN),"Planned Parenthood of the Rocky Mountains, Inc.", Sexually Transmitted Disease Clinics,3487 W 10th St,Greeley,CO,Weld,80634-5361,"CON002, CON003",Anthem BCBS,"Planned Parenthood of the Rocky Mountains--Greeley: 3487 W 10th St, Greeley, CO, 80634-5361: Anthem BCBS","3487 W 10th St, Greeley, CO, 80634-5361"
1932596350,High Plains Holly Clinic,Non-Physician,000 OTHER,"HIGH PLAINS COMMUNITY HEALTH CENTER, INCORPORATED",Federally Qualified Health Centers,410 W. Colorado,Holly,CO,Prowers,81047,"CON002, CON003",Anthem BCBS,"High Plains Holly Clinic: 410 W. Colorado, Holly, CO, 81047: Anthem BCBS","410 W. Colorado, Holly, CO, 81047"
1932596350,High Plains Holly Clinic,Non-Physician,000 OTHER,"HIGH PLAINS COMMUNITY HEALTH CENTER, INCORPORATED", Rural Health Clinics,410 W. Colorado,Holly,CO,Prowers,81047,"CON002, CON003",Anthem BCBS,"High Plains Holly Clinic: 410 W. Colorado, Holly, CO, 81047: Anthem BCBS","410 W. Colorado, Holly, CO, 81047"
1013911437,Northeast Colorado Health Department,Non-Physician,006 Primary Care - Nurse Practitioner,Northeast Colorado Health Department,Family Planning Providers,127 E Denver St,Holyoke,CO,Phillips,80734-1553,"CON002, CON003",Anthem BCBS,"Northeast Colorado Health Department: 127 E Denver St, Holyoke, CO, 80734-1553: Anthem BCBS","127 E Denver St, Holyoke, CO, 80734-1553"
1013911437,Northeast Colorado Health Department,Non-Physician,006 Primary Care - Nurse Practitioner,Northeast Colorado Health Department,Family Planning Providers,118 W 3rd St,Julesburg,CO,Sedgwick,80737-1542,"CON002, CON003",Anthem BCBS,"Northeast Colorado Health Department: 118 W 3rd St, Julesburg, CO, 80737-1542: Anthem BCBS","118 W 3rd St, Julesburg, CO, 80737-1542"
1205255304,Health Center at Kiowa,Non-Physician,005 Primary Care - Physician Assistant,PEAK VISTA COMMUNITY HEALTH CENTERS,Federally Qualified Health Centers,320 Comanche St,Kiowa,CO,Elbert,80117,"CON002, CON003",Anthem BCBS,"Health Center at Kiowa: 320 Comanche St, Kiowa, CO, 80117: Anthem BCBS","320 Comanche St, Kiowa, CO, 80117"
1437314481,Alameda High School Kids and Teens Health Center,Non-Physician,000 OTHER,Metro Community Provider Network,Federally Qualified Health Centers,1255 S Wadsworth Blvd,Lakewood,CO,Jefferson,80232-5406,"CON002, CON003",Anthem BCBS,"Alameda High School Kids and Teens Health Center: 1255 S Wadsworth Blvd, Lakewood, CO, 80232-5406: Anthem BCBS","1255 S Wadsworth Blvd, Lakewood, CO, 80232-5406"
1326203399,STEIN KIDS HEALTH CENTER,Non-Physician,000 OTHER,"METRO COMMUNITY PROVIDER NETWORK, INC.",Federally Qualified Health Centers,80 S Teller St,Lakewood,CO,Jefferson,80226-2044,"CON002, CON003",Anthem BCBS,"STEIN KIDS HEALTH CENTER: 80 S Teller St, Lakewood, CO, 80226-2044: Anthem BCBS","80 S Teller St, Lakewood, CO, 80226-2044"
1770865644,High Plains Adult Community Health Center,Non-Physician,000 OTHER,"HIGH PLAINS COMMUNITY HEALTH CENTER, INCORPORATED",Federally Qualified Health Centers,2221 Wellness Way,Lamar,CO,Prowers,81052-3867,"CON002, CON003",Anthem BCBS,"High Plains Adult Community Health Center: 2221 Wellness Way, Lamar, CO, 81052-3867: Anthem BCBS","2221 Wellness Way, Lamar, CO, 81052-3867"
1770865644,High Plains Adult Community Health Center,Non-Physician,000 OTHER,"HIGH PLAINS COMMUNITY HEALTH CENTER, INCORPORATED", Rural Health Clinics,2221 Wellness Way,Lamar,CO,Prowers,81052-3867,"CON002, CON003",Anthem BCBS,"High Plains Adult Community Health Center: 2221 Wellness Way, Lamar, CO, 81052-3867: Anthem BCBS","2221 Wellness Way, Lamar, CO, 81052-3867"
1275813982,LCC CAMPUS HEALTH CLINIC,Physician,002 Family Medicine,"HIGH PLAINS COMMUNITY HEALTH CENTER, INCORPORATED",Federally Qualified Health Centers,2401 S Main St,Lamar,CO,Prowers,81052-3912,"CON002, CON003",Anthem BCBS,"LCC CAMPUS HEALTH CLINIC: 2401 S Main St, Lamar, CO, 81052-3912: Anthem BCBS","2401 S Main St, Lamar, CO, 81052-3912"
1275813982,LCC CAMPUS HEALTH CLINIC,Physician,002 Family Medicine,"HIGH PLAINS COMMUNITY HEALTH CENTER, INCORPORATED", Rural Health Clinics,2401 S Main St,Lamar,CO,Prowers,81052-3912,"CON002, CON003",Anthem BCBS,"LCC CAMPUS HEALTH CLINIC: 2401 S Main St, Lamar, CO, 81052-3912: Anthem BCBS","2401 S Main St, Lamar, CO, 81052-3912"
1437533031,Lake School Based Health Center,Non-Physician,006 Primary Care - Nurse Practitioner,"Summit Community Care Clinic, Inc.", Family Planning Providers,1000 W 4th St,Leadville,CO,Lake,80461-3800,"CON002, CON003",Anthem BCBS,"Lake School Based Health Center: 1000 W 4th St, Leadville, CO, 80461-3800: Anthem BCBS","1000 W 4th St, Leadville, CO, 80461-3800"
1437533031,Lake School Based Health Center,Non-Physician,006 Primary Care - Nurse Practitioner,"Summit Community Care Clinic, Inc.", Federally Qualified Health Centers,1000 W 4th St,Leadville,CO,Lake,80461-3800,"CON002, CON003",Anthem BCBS,"Lake School Based Health Center: 1000 W 4th St, Leadville, CO, 80461-3800: Anthem BCBS","1000 W 4th St, Leadville, CO, 80461-3800"
1881743631,Planned Parenthood of the Rocky Mountains--Longmont,Physician,016 Gynecology (OB/GYN),"Planned Parenthood of the Rocky Mountains, Inc.",Family Planning Providers,195 S Main St,Longmont,CO,Boulder,80501-6218,"CON002, CON003",Anthem BCBS,"Planned Parenthood of the Rocky Mountains--Longmont: 195 S Main St, Longmont, CO, 80501-6218: Anthem BCBS","195 S Main St, Longmont, CO, 80501-6218"
1881743631,Planned Parenthood of the Rocky Mountains--Longmont,Physician,016 Gynecology (OB/GYN),"Planned Parenthood of the Rocky Mountains, Inc.", Rural Health Clinics,195 S Main St,Longmont,CO,Boulder,80501-6218,"CON002, CON003",Anthem BCBS,"Planned Parenthood of the Rocky Mountains--Longmont: 195 S Main St, Longmont, CO, 80501-6218: Anthem BCBS","195 S Main St, Longmont, CO, 80501-6218"
1881743631,Planned Parenthood of the Rocky Mountains--Longmont,Physician,016 Gynecology (OB/GYN),"Planned Parenthood of the Rocky Mountains, Inc.", Sexually Transmitted Disease Clinics,195 S Main St,Longmont,CO,Boulder,80501-6218,"CON002, CON003",Anthem BCBS,"Planned Parenthood of the Rocky Mountains--Longmont: 195 S Main St, Longmont, CO, 80501-6218: Anthem BCBS","195 S Main St, Longmont, CO, 80501-6218"
1750660726,SUNRISE SUMMITSTONE CLINIC,Physician,002 Family Medicine,SUNRISE COMMUNITY HEALTH,Federally Qualified Health Centers,1250 N Wilson Ave,Loveland,CO,Larimer,80537-4461,"CON002, CON003",Anthem BCBS,"SUNRISE SUMMITSTONE CLINIC: 1250 N Wilson Ave, Loveland, CO, 80537-4461: Anthem BCBS","1250 N Wilson Ave, Loveland, CO, 80537-4461"
1881681104,Moffat Family Health Center,Physician,002 Family Medicine,"VALLEY WIDE HEALTH SYSTEMS, INC.",Federally Qualified Health Centers,545 Moffat Way,Moffat,CO,Saguache,81143,"CON002, CON003",Anthem BCBS,"Moffat Family Health Center: 545 Moffat Way, Moffat, CO, 81143: Anthem BCBS","545 Moffat Way, Moffat, CO, 81143"
1881743631,Planned Parenthood of the Rocky Mountains--Parker Express,Physician,016 Gynecology (OB/GYN),"Planned Parenthood of the Rocky Mountains, Inc.",Family Planning Providers,12543 N State Highway 83,Parker,CO,Douglas,80134-8800,"CON002, CON003",Anthem BCBS,"Planned Parenthood of the Rocky Mountains--Parker Express: 12543 N State Highway 83, Parker, CO, 80134-8800: Anthem BCBS","12543 N State Highway 83, Parker, CO, 80134-8800"
1881743631,Planned Parenthood of the Rocky Mountains--Parker Express,Physician,016 Gynecology (OB/GYN),"Planned Parenthood of the Rocky Mountains, Inc.", Rural Health Clinics,12543 N State Highway 83,Parker,CO,Douglas,80134-8800,"CON002, CON003",Anthem BCBS,"Planned Parenthood of the Rocky Mountains--Parker Express: 12543 N State Highway 83, Parker, CO, 80134-8800: Anthem BCBS","12543 N State Highway 83, Parker, CO, 80134-8800"
1881743631,Planned Parenthood of the Rocky Mountains--Parker Express,Physician,016 Gynecology (OB/GYN),"Planned Parenthood of the Rocky Mountains, Inc.", Sexually Transmitted Disease Clinics,12543 N State Highway 83,Parker,CO,Douglas,80134-8800,"CON002, CON003",Anthem BCBS,"Planned Parenthood of the Rocky Mountains--Parker Express: 12543 N State Highway 83, Parker, CO, 80134-8800: Anthem BCBS","12543 N State Highway 83, Parker, CO, 80134-8800"
1619224987,Falcon Peak School Based Health Center,Non-Physician,000 OTHER,PEAK VISTA COMMUNITY HEALTH CENTERS,Federally Qualified Health Centers,12050 Falcon Hwy,Peyton,CO,El Paso,80831-8076,"CON002, CON003",Anthem BCBS,"Falcon Peak School Based Health Center: 12050 Falcon Hwy, Peyton, CO, 80831-8076: Anthem BCBS","12050 Falcon Hwy, Peyton, CO, 80831-8076"
1881743631,Planned Parenthood of the Rocky Mountains--Salida,Physician,002 Family Medicine,"Planned Parenthood of the Rocky Mountains, Inc.",Family Planning Providers,233 E 2nd St,Salida,CO,Chaffee,81201-2116,"CON002, CON003",Anthem BCBS,"Planned Parenthood of the Rocky Mountains--Salida: 233 E 2nd St, Salida, CO, 81201-2116: Anthem BCBS","233 E 2nd St, Salida, CO, 81201-2116"
1881743631,Planned Parenthood of the Rocky Mountains--Salida,Physician,002 Family Medicine,"Planned Parenthood of the Rocky Mountains, Inc.", Rural Health Clinics,233 E 2nd St,Salida,CO,Chaffee,81201-2116,"CON002, CON003",Anthem BCBS,"Planned Parenthood of the Rocky Mountains--Salida: 233 E 2nd St, Salida, CO, 81201-2116: Anthem BCBS","233 E 2nd St, Salida, CO, 81201-2116"
1881743631,Planned Parenthood of the Rocky Mountains--Salida,Physician,002 Family Medicine,"Planned Parenthood of the Rocky Mountains, Inc.", Sexually Transmitted Disease Clinics,233 E 2nd St,Salida,CO,Chaffee,81201-2116,"CON002, CON003",Anthem BCBS,"Planned Parenthood of the Rocky Mountains--Salida: 233 E 2nd St, Salida, CO, 81201-2116: Anthem BCBS","233 E 2nd St, Salida, CO, 81201-2116"
1881743631,Planned Parenthood of the Rocky Mountains - Steamboat Springs,Physician,002 Family Medicine,"Planned Parenthood of the Rocky Mountains, Inc.",Family Planning Providers,111 11th St,Steamboat Springs,CO,Routt,80477,"CON002, CON003",Anthem BCBS,"Planned Parenthood of the Rocky Mountains - Steamboat Springs: 111 11th St, Steamboat Springs, CO, 80477: Anthem BCBS","111 11th St, Steamboat Springs, CO, 80477"
1881743631,Planned Parenthood of the Rocky Mountains - Steamboat Springs,Physician,002 Family Medicine,"Planned Parenthood of the Rocky Mountains, Inc.", Rural Health Clinics,111 11th St,Steamboat Springs,CO,Routt,80477,"CON002, CON003",Anthem BCBS,"Planned Parenthood of the Rocky Mountains - Steamboat Springs: 111 11th St, Steamboat Springs, CO, 80477: Anthem BCBS","111 11th St, Steamboat Springs, CO, 80477"
1881743631,Planned Parenthood of the Rocky Mountains - Steamboat Springs,Physician,002 Family Medicine,"Planned Parenthood of the Rocky Mountains, Inc.", Sexually Transmitted Disease Clinics,111 11th St,Steamboat Springs,CO,Routt,80477,"CON002, CON003",Anthem BCBS,"Planned Parenthood of the Rocky Mountains - Steamboat Springs: 111 11th St, Steamboat Springs, CO, 80477: Anthem BCBS","111 11th St, Steamboat Springs, CO, 80477"
1013911437,Northeast Colorado Health Department,Non-Physician,006 Primary Care - Nurse Practitioner,Northeast Colorado Health Dept,Family Planning Providers,700 Columbine St,Sterling,CO,Logan,80751-3728,"CON002, CON003",Anthem BCBS,"Northeast Colorado Health Department: 700 Columbine St, Sterling, CO, 80751-3728: Anthem BCBS","700 Columbine St, Sterling, CO, 80751-3728"
1588803050,Walsh Medical Clinic,Physician,002 Family Medicine,Walsh Medical Clinic,Rural Health Clinics,137 S Kansas St,Walsh,CO,Baca,81090,"CON002, CON003",Anthem BCBS,"Walsh Medical Clinic: 137 S Kansas St, Walsh, CO, 81090: Anthem BCBS","137 S Kansas St, Walsh, CO, 81090"
1912349465,High Plains Wiley Clinic,Non-Physician,006 Primary Care - Nurse Practitioner,"HIGH PLAINS COMMUNITY HEALTH CENTER, INCORPORATED",Federally Qualified Health Centers,302 Main St,Wiley,CO,Prowers,81092,"CON002, CON003",Anthem BCBS,"High Plains Wiley Clinic: 302 Main St, Wiley, CO, 81092: Anthem BCBS","302 Main St, Wiley, CO, 81092"
1912349465,High Plains Wiley Clinic,Non-Physician,006 Primary Care - Nurse Practitioner,"HIGH PLAINS COMMUNITY HEALTH CENTER, INCORPORATED", Rural Health Clinics,302 Main St,Wiley,CO,Prowers,81092,"CON002, CON003",Anthem BCBS,"High Plains Wiley Clinic: 302 Main St, Wiley, CO, 81092: Anthem BCBS","302 Main St, Wiley, CO, 81092"
1013911437,Northeast Colorado Health Department,Non-Physician,006 Primary Care - Nurse Practitioner,Northeast Colorado Health Department,Family Planning Providers,529 N Albany St,Yuma,CO,Yuma,80759-1526,"CON002, CON003",Anthem BCBS,"Northeast Colorado Health Department: 529 N Albany St, Yuma, CO, 80759-1526: Anthem BCBS","529 N Albany St, Yuma, CO, 80759-1526"
1013911437,Northeast Colorado Health Department,Non-Physician,006 Primary Care - Nurse Practitioner,Northeast Colorado Health Department,Family Planning Providers,228 W Railroad Ave,Fort Morgan,CO,Morgan,80701-2324,"CON002, CON003",Anthem BCBS,"Northeast Colorado Health Department: 228 W Railroad Ave, Fort Morgan, CO, 80701-2324: Anthem BCBS","228 W Railroad Ave, Fort Morgan, CO, 80701-2324"
1881743631,Planned Parenthood of the Rocky Mountains - Alamosa,Physician,"Family Planning Providers, Rural Health Clinics, Sexually Transmitted Disease Clinics","Planned Parenthood of the Rocky Mountains, Inc.",Family Planning Providers,1560 12th St,Alamosa,CO,Alamosa,81101-3709,CON001,Bright,"Planned Parenthood of the Rocky Mountains - Alamosa: 1560 12th St, Alamosa, CO, 81101-3709: Bright","1560 12th St, Alamosa, CO, 81101-3709"
1881743631,Planned Parenthood of the Rocky Mountains - Alamosa,Physician,"Family Planning Providers, Rural Health Clinics, Sexually Transmitted Disease Clinics","Planned Parenthood of the Rocky Mountains, Inc.", Rural Health Clinics,1560 12th St,Alamosa,CO,Alamosa,81101-3709,CON001,Bright,"Planned Parenthood of the Rocky Mountains - Alamosa: 1560 12th St, Alamosa, CO, 81101-3709: Bright","1560 12th St, Alamosa, CO, 81101-3709"
1881743631,Planned Parenthood of the Rocky Mountains - Alamosa,Physician,"Family Planning Providers, Rural Health Clinics, Sexually Transmitted Disease Clinics","Planned Parenthood of the Rocky Mountains, Inc.", Sexually Transmitted Disease Clinics,1560 12th St,Alamosa,CO,Alamosa,81101-3709,CON001,Bright,"Planned Parenthood of the Rocky Mountains - Alamosa: 1560 12th St, Alamosa, CO, 81101-3709: Bright","1560 12th St, Alamosa, CO, 81101-3709"
1336245828,"Children's Hospital Colorado Orthopedic Care, Centennial",Physician,Outpatient Hospital Clinics,Children's Hospital Colorado,Outpatient Hospital Clinics,9094 E Mineral Cir,Centennial,CO,Arapahoe,80112-7201,CON001,Bright,"Children's Hospital Colorado Orthopedic Care, Centennial: 9094 E Mineral Cir, Centennial, CO, 80112-7201: Bright","9094 E Mineral Cir, Centennial, CO, 80112-7201"
1881743631,Planned Parenthood of the Rocky Mountains--Cortez,Physician,"Family Planning Providers, Rural Health Clinics, Sexually Transmitted Disease Clinics","Planned Parenthood of the Rocky Mountains, Inc.",Family Planning Providers,20 W North St,Cortez,CO,Montezuma,81321-3117,CON001,Bright,"Planned Parenthood of the Rocky Mountains--Cortez: 20 W North St, Cortez, CO, 81321-3117: Bright","20 W North St, Cortez, CO, 81321-3117"
1881743631,Planned Parenthood of the Rocky Mountains--Cortez,Physician,"Family Planning Providers, Rural Health Clinics, Sexually Transmitted Disease Clinics","Planned Parenthood of the Rocky Mountains, Inc.", Rural Health Clinics,20 W North St,Cortez,CO,Montezuma,81321-3117,CON001,Bright,"Planned Parenthood of the Rocky Mountains--Cortez: 20 W North St, Cortez, CO, 81321-3117: Bright","20 W North St, Cortez, CO, 81321-3117"
1881743631,Planned Parenthood of the Rocky Mountains--Cortez,Physician,"Family Planning Providers, Rural Health Clinics, Sexually Transmitted Disease Clinics","Planned Parenthood of the Rocky Mountains, Inc.", Sexually Transmitted Disease Clinics,20 W North St,Cortez,CO,Montezuma,81321-3117,CON001,Bright,"Planned Parenthood of the Rocky Mountains--Cortez: 20 W North St, Cortez, CO, 81321-3117: Bright","20 W North St, Cortez, CO, 81321-3117"
1881743631,Planned Parenthood of the Rocky Mountains - Granby,Physician,"Family Planning Providers, Sexually Transmitted Disease Clinics","Planned Parenthood of the Rocky Mountains, Inc.",Family Planning Providers,236 Agate Ave.,Granby,CO,Grand,80446-0088,CON001,Bright,"Planned Parenthood of the Rocky Mountains - Granby: 236 Agate Ave., Granby, CO, 80446-0088: Bright","236 Agate Ave., Granby, CO, 80446-0088"
1881743631,Planned Parenthood of the Rocky Mountains - Granby,Physician,"Family Planning Providers, Sexually Transmitted Disease Clinics","Planned Parenthood of the Rocky Mountains, Inc.", Sexually Transmitted Disease Clinics,236 Agate Ave.,Granby,CO,Grand,80446-0088,CON001,Bright,"Planned Parenthood of the Rocky Mountains - Granby: 236 Agate Ave., Granby, CO, 80446-0088: Bright","236 Agate Ave., Granby, CO, 80446-0088"
1881743631,Planned Parenthood of the Rocky Mountains--Greeley,Physician,"Family Planning Providers, Sexually Transmitted Disease Clinics","Planned Parenthood of the Rocky Mountains, Inc.",Family Planning Providers,3487 W 10th St,Greeley,CO,Weld,80634-5361,CON001,Bright,"Planned Parenthood of the Rocky Mountains--Greeley: 3487 W 10th St, Greeley, CO, 80634-5361: Bright","3487 W 10th St, Greeley, CO, 80634-5361"
1881743631,Planned Parenthood of the Rocky Mountains--Greeley,Physician,"Family Planning Providers, Sexually Transmitted Disease Clinics","Planned Parenthood of the Rocky Mountains, Inc.", Sexually Transmitted Disease Clinics,3487 W 10th St,Greeley,CO,Weld,80634-5361,CON001,Bright,"Planned Parenthood of the Rocky Mountains--Greeley: 3487 W 10th St, Greeley, CO, 80634-5361: Bright","3487 W 10th St, Greeley, CO, 80634-5361"
1881743631,Planned Parenthood of the Rocky Mountains--Longmont,Physician,"Family Planning Providers, Rural Health Clinics, Sexually Transmitted Disease Clinics","Planned Parenthood of the Rocky Mountains, Inc.",Family Planning Providers,195 S Main St,Longmont,CO,Boulder,80501-6218,CON001,Bright,"Planned Parenthood of the Rocky Mountains--Longmont: 195 S Main St, Longmont, CO, 80501-6218: Bright","195 S Main St, Longmont, CO, 80501-6218"
1881743631,Planned Parenthood of the Rocky Mountains--Longmont,Physician,"Family Planning Providers, Rural Health Clinics, Sexually Transmitted Disease Clinics","Planned Parenthood of the Rocky Mountains, Inc.", Rural Health Clinics,195 S Main St,Longmont,CO,Boulder,80501-6218,CON001,Bright,"Planned Parenthood of the Rocky Mountains--Longmont: 195 S Main St, Longmont, CO, 80501-6218: Bright","195 S Main St, Longmont, CO, 80501-6218"
1881743631,Planned Parenthood of the Rocky Mountains--Longmont,Physician,"Family Planning Providers, Rural Health Clinics, Sexually Transmitted Disease Clinics","Planned Parenthood of the Rocky Mountains, Inc.", Sexually Transmitted Disease Clinics,195 S Main St,Longmont,CO,Boulder,80501-6218,CON001,Bright,"Planned Parenthood of the Rocky Mountains--Longmont: 195 S Main St, Longmont, CO, 80501-6218: Bright","195 S Main St, Longmont, CO, 80501-6218"
1881743631,Planned Parenthood of the Rocky Mountains--Parker Express,Physician,"Family Planning Providers, Rural Health Clinics, Sexually Transmitted Disease Clinics","Planned Parenthood of the Rocky Mountains, Inc.",Family Planning Providers,12543 N State Highway 83,Parker,CO,Douglas,80134-8800,CON001,Bright,"Planned Parenthood of the Rocky Mountains--Parker Express: 12543 N State Highway 83, Parker, CO, 80134-8800: Bright","12543 N State Highway 83, Parker, CO, 80134-8800"
1881743631,Planned Parenthood of the Rocky Mountains--Parker Express,Physician,"Family Planning Providers, Rural Health Clinics, Sexually Transmitted Disease Clinics","Planned Parenthood of the Rocky Mountains, Inc.", Rural Health Clinics,12543 N State Highway 83,Parker,CO,Douglas,80134-8800,CON001,Bright,"Planned Parenthood of the Rocky Mountains--Parker Express: 12543 N State Highway 83, Parker, CO, 80134-8800: Bright","12543 N State Highway 83, Parker, CO, 80134-8800"
1881743631,Planned Parenthood of the Rocky Mountains--Parker Express,Physician,"Family Planning Providers, Rural Health Clinics, Sexually Transmitted Disease Clinics","Planned Parenthood of the Rocky Mountains, Inc.", Sexually Transmitted Disease Clinics,12543 N State Highway 83,Parker,CO,Douglas,80134-8800,CON001,Bright,"Planned Parenthood of the Rocky Mountains--Parker Express: 12543 N State Highway 83, Parker, CO, 80134-8800: Bright","12543 N State Highway 83, Parker, CO, 80134-8800"
1881743631,Planned Parenthood of the Rocky Mountains--Salida,Physician,"Family Planning Providers, Rural Health Clinics, Sexually Transmitted Disease Clinics","Planned Parenthood of the Rocky Mountains, Inc.",Family Planning Providers,233 E 2nd St,Salida,CO,Chaffee,81201-2116,CON001,Bright,"Planned Parenthood of the Rocky Mountains--Salida: 233 E 2nd St, Salida, CO, 81201-2116: Bright","233 E 2nd St, Salida, CO, 81201-2116"
1881743631,Planned Parenthood of the Rocky Mountains--Salida,Physician,"Family Planning Providers, Rural Health Clinics, Sexually Transmitted Disease Clinics","Planned Parenthood of the Rocky Mountains, Inc.", Rural Health Clinics,233 E 2nd St,Salida,CO,Chaffee,81201-2116,CON001,Bright,"Planned Parenthood of the Rocky Mountains--Salida: 233 E 2nd St, Salida, CO, 81201-2116: Bright","233 E 2nd St, Salida, CO, 81201-2116"
1881743631,Planned Parenthood of the Rocky Mountains--Salida,Physician,"Family Planning Providers, Rural Health Clinics, Sexually Transmitted Disease Clinics","Planned Parenthood of the Rocky Mountains, Inc.", Sexually Transmitted Disease Clinics,233 E 2nd St,Salida,CO,Chaffee,81201-2116,CON001,Bright,"Planned Parenthood of the Rocky Mountains--Salida: 233 E 2nd St, Salida, CO, 81201-2116: Bright","233 E 2nd St, Salida, CO, 81201-2116"
1881743631,Planned Parenthood of the Rocky Mountains - Steamboat Springs,Physician,"Family Planning Providers, Rural Health Clinics, Sexually Transmitted Disease Clinics","Planned Parenthood of the Rocky Mountains, Inc.",Family Planning Providers,111 11th St,Steamboat Springs,CO,Routt,80477,CON001,Bright,"Planned Parenthood of the Rocky Mountains - Steamboat Springs: 111 11th St, Steamboat Springs, CO, 80477: Bright","111 11th St, Steamboat Springs, CO, 80477"
1881743631,Planned Parenthood of the Rocky Mountains - Steamboat Springs,Physician,"Family Planning Providers, Rural Health Clinics, Sexually Transmitted Disease Clinics","Planned Parenthood of the Rocky Mountains, Inc.", Rural Health Clinics,111 11th St,Steamboat Springs,CO,Routt,80477,CON001,Bright,"Planned Parenthood of the Rocky Mountains - Steamboat Springs: 111 11th St, Steamboat Springs, CO, 80477: Bright","111 11th St, Steamboat Springs, CO, 80477"
1881743631,Planned Parenthood of the Rocky Mountains - Steamboat Springs,Physician,"Family Planning Providers, Rural Health Clinics, Sexually Transmitted Disease Clinics","Planned Parenthood of the Rocky Mountains, Inc.", Sexually Transmitted Disease Clinics,111 11th St,Steamboat Springs,CO,Routt,80477,CON001,Bright,"Planned Parenthood of the Rocky Mountains - Steamboat Springs: 111 11th St, Steamboat Springs, CO, 80477: Bright","111 11th St, Steamboat Springs, CO, 80477"
1659649135,Clinica Family Health - MHP Alpine,Physician,Federally Qualified Health Centers,CLINICA CAMPESINA FAMILY HEALTH SERVICES,Federally Qualified Health Centers,1000 Alpine Ave,Boulder,CO,Boulder,80304-3406,CON001,Bright,"Clinica Family Health - MHP Alpine: 1000 Alpine Ave, Boulder, CO, 80304-3406: Bright","1000 Alpine Ave, Boulder, CO, 80304-3406"
1164752812,Entrada School Based Health Center,Physician,Federally Qualified Health Centers,PEAK VISTA COMMUNITY HEALTH CENTERS,Federally Qualified Health Centers,1740 Pepperwood Dr,Colorado Springs,CO,El Paso,80910-1525,CON001,Bright,"Entrada School Based Health Center: 1740 Pepperwood Dr, Colorado Springs, CO, 80910-1525: Bright","1740 Pepperwood Dr, Colorado Springs, CO, 80910-1525"
1699930651,JEFFERSON HIGH SCHOOL KIDS & TEENS HEALTH CENTER,Physician,Federally Qualified Health Centers,"METRO COMMUNITY PROVIDER NETWORK, INC.",Federally Qualified Health Centers,2305 Pierce St,Edgewater,CO,Jefferson,80214-1031,CON001,Bright,"JEFFERSON HIGH SCHOOL KIDS & TEENS HEALTH CENTER: 2305 Pierce St, Edgewater, CO, 80214-1031: Bright","2305 Pierce St, Edgewater, CO, 80214-1031"
1730295296,Rocky Mountain Youth Clinics - Laredo,Physician,000 OTHER,Rocky Mountain Youth Clinics,000 OTHER,1350 Laredo St,Aurora,CO,Arapahoe,80011-7455,CON001,Cigna,"Rocky Mountain Youth Clinics - Laredo: 1350 Laredo St, Aurora, CO, 80011-7455: Cigna","1350 Laredo St, Aurora, CO, 80011-7455"
1649605536,MCPN - Health &Wellness Center at the Asian Pacific Development Center,Physician,000 OTHER,"METRO COMMUNITY PROVIDER NETWORK, INC.",Federally Qualified Health Centers,1537 Alton St,Aurora,CO,Adams,80010-1712,CON001,Cigna,"MCPN - Health &Wellness Center at the Asian Pacific Development Center: 1537 Alton St, Aurora, CO, 80010-1712: Cigna","1537 Alton St, Aurora, CO, 80010-1712"
1730295296,Rocky Mountain Youth Clinics - Crawford,Physician,000 OTHER,Rocky Mountain Youth Clinics,000 OTHER,1600 Florence St,Aurora,CO,Adams,80010-2130,CON001,Cigna,"Rocky Mountain Youth Clinics - Crawford: 1600 Florence St, Aurora, CO, 80010-2130: Cigna","1600 Florence St, Aurora, CO, 80010-2130"
1326203399,STEIN KIDS HEALTH CENTER,Physician,000 OTHER,"METRO COMMUNITY PROVIDER NETWORK, INC.",Federally Qualified Health Centers,80 S Teller St,Lakewood,CO,Jefferson,80226-2044,CON001,Cigna,"STEIN KIDS HEALTH CENTER: 80 S Teller St, Lakewood, CO, 80226-2044: Cigna","80 S Teller St, Lakewood, CO, 80226-2044"
1205122066,MCPN Arapahoe Douglas Health Center,Physician,000 OTHER,"METRO COMMUNITY PROVIDER NETWORK, INC.",Federally Qualified Health Centers,61 W Davies Ave N,Littleton,CO,Arapahoe,80120-5252,CON001,Cigna,"MCPN Arapahoe Douglas Health Center: 61 W Davies Ave N, Littleton, CO, 80120-5252: Cigna","61 W Davies Ave N, Littleton, CO, 80120-5252"
1316233174,Independence Health Center at JCMH,Physician,000 OTHER,"METRO COMMUNITY PROVIDER NETWORK, INC.",Federally Qualified Health Centers,4851 Independence St,Wheat Ridge,CO,Jefferson,80033-6715,CON001,Cigna,"Independence Health Center at JCMH: 4851 Independence St, Wheat Ridge, CO, 80033-6715: Cigna","4851 Independence St, Wheat Ridge, CO, 80033-6715"
1730295296,Rocky Mountain Youth Clinics - Laredo,Physician,Other ECP Providers,Rocky Mountain Youth Clinics,Other ECP Providers,1350 Laredo St,Aurora,CO,Arapahoe,80011-7455,CON001,Denver Health,"Rocky Mountain Youth Clinics - Laredo: 1350 Laredo St, Aurora, CO, 80011-7455: Denver Health","1350 Laredo St, Aurora, CO, 80011-7455"
1649605536,MCPN - Health &Wellness Center at the Asian Pacific Development Center,Physician,Federally Qualified Health Centers,"METRO COMMUNITY PROVIDER NETWORK, INC.",Federally Qualified Health Centers,1537 Alton St,Aurora,CO,Adams,80010-1712,CON001,Denver Health,"MCPN - Health &Wellness Center at the Asian Pacific Development Center: 1537 Alton St, Aurora, CO, 80010-1712: Denver Health","1537 Alton St, Aurora, CO, 80010-1712"
1730295296,Rocky Mountain Youth Clinics - Crawford,Physician,Other ECP Providers,Rocky Mountain Youth Clinics,Other ECP Providers,1600 Florence St,Aurora,CO,Adams,80010-2130,CON001,Denver Health,"Rocky Mountain Youth Clinics - Crawford: 1600 Florence St, Aurora, CO, 80010-2130: Denver Health","1600 Florence St, Aurora, CO, 80010-2130"
1659649135,Clinica Family Health - MHP Alpine,Physician,Federally Qualified Health Centers,CLINICA CAMPESINA FAMILY HEALTH SERVICES,Federally Qualified Health Centers,1000 Alpine Ave,Boulder,CO,Boulder,80304-3406,CON001,Denver Health,"Clinica Family Health - MHP Alpine: 1000 Alpine Ave, Boulder, CO, 80304-3406: Denver Health","1000 Alpine Ave, Boulder, CO, 80304-3406"
1487803383,Beacon Center for Infectious Diseases (ryan white providers),Physician,017 Infectious Diseases,Boulder Community Health (Hospital),Ryan White Providers,4800 Riverbend Rd,Boulder,CO,Boulder,80301-2636,CON001,Denver Health,"Beacon Center for Infectious Diseases (ryan white providers): 4800 Riverbend Rd, Boulder, CO, 80301-2636: Denver Health","4800 Riverbend Rd, Boulder, CO, 80301-2636"
1215935978,Broomfield Public Health and Environment Division of Health and Human Services,Physician,Family Planning Providers,Broomfield Public Health and Environment Division of Health and Human Services Department,Family Planning Providers,6 Garden Ctr,Broomfield,CO,Broomfield,80020-1730,CON001,Denver Health,"Broomfield Public Health and Environment Division of Health and Human Services: 6 Garden Ctr, Broomfield, CO, 80020-1730: Denver Health","6 Garden Ctr, Broomfield, CO, 80020-1730"
1215935978,Broomfield Public Health and Environment Division of Health and Human Services,Physician,Family Planning Providers,Broomfield Public Health and Environment Division of Health and Human Services Department, Sexually Transmitted Disease Clinics,6 Garden Ctr,Broomfield,CO,Broomfield,80020-1730,CON001,Denver Health,"Broomfield Public Health and Environment Division of Health and Human Services: 6 Garden Ctr, Broomfield, CO, 80020-1730: Denver Health","6 Garden Ctr, Broomfield, CO, 80020-1730"
1336245828,"Children's Hospital Colorado Orthopedic Care, Centennial",Physician,Outpatient Hospital Clinics,Children's Hospital Colorado,Outpatient Hospital Clinics,9094 E Mineral Cir,Centennial,CO,Arapahoe,80112-7201,CON001,Denver Health,"Children's Hospital Colorado Orthopedic Care, Centennial: 9094 E Mineral Cir, Centennial, CO, 80112-7201: Denver Health","9094 E Mineral Cir, Centennial, CO, 80112-7201"
1801297593,Community Reach Center Salud,Physician,Federally Qualified Health Centers,"PLAN DE SALUD DEL VALLE, INC.",Federally Qualified Health Centers,4371 E 72nd Ave,Commerce City,CO,Adams,80022-1471,CON001,Denver Health,"Community Reach Center Salud: 4371 E 72nd Ave, Commerce City, CO, 80022-1471: Denver Health","4371 E 72nd Ave, Commerce City, CO, 80022-1471"
1639200702,Kids First Health Care at Lester Arnold,Physician,Other ECP Providers,Kids First Health Care,Other ECP Providers,6500 E 72nd Ave,Commerce City,CO,Adams,80022-2006,CON001,Denver Health,"Kids First Health Care at Lester Arnold: 6500 E 72nd Ave, Commerce City, CO, 80022-2006: Denver Health","6500 E 72nd Ave, Commerce City, CO, 80022-2006"
1346621208,2100 Broadway Services Building,Physician,Federally Qualified Health Centers,Colorado Coalition for the Homeless,Federally Qualified Health Centers,2100 N Broadway,Denver,CO,Denver,80205-2526,CON001,Denver Health,"2100 Broadway Services Building: 2100 N Broadway, Denver, CO, 80205-2526: Denver Health","2100 N Broadway, Denver, CO, 80205-2526"
1477866184,Quigg Newton Family Counseling Center,Physician,Federally Qualified Health Centers,Colorado Coalition for the Homeless,Federally Qualified Health Centers,4545 Navajo St,Denver,CO,Denver,80211-2440,CON001,Denver Health,"Quigg Newton Family Counseling Center: 4545 Navajo St, Denver, CO, 80211-2440: Denver Health","4545 Navajo St, Denver, CO, 80211-2440"
1699930651,JEFFERSON HIGH SCHOOL KIDS & TEENS HEALTH CENTER,Physician,Federally Qualified Health Centers,"METRO COMMUNITY PROVIDER NETWORK, INC.",Federally Qualified Health Centers,2305 Pierce St,Edgewater,CO,Jefferson,80214-1031,CON001,Denver Health,"JEFFERSON HIGH SCHOOL KIDS & TEENS HEALTH CENTER: 2305 Pierce St, Edgewater, CO, 80214-1031: Denver Health","2305 Pierce St, Edgewater, CO, 80214-1031"
1437314481,Alameda High School Kids and Teens Health Center,Physician,Federally Qualified Health Centers,Metro Community Provider Network,Federally Qualified Health Centers,1255 S Wadsworth Blvd,Lakewood,CO,Jefferson,80232-5406,CON001,Denver Health,"Alameda High School Kids and Teens Health Center: 1255 S Wadsworth Blvd, Lakewood, CO, 80232-5406: Denver Health","1255 S Wadsworth Blvd, Lakewood, CO, 80232-5406"
1326203399,STEIN KIDS HEALTH CENTER,Physician,Federally Qualified Health Centers,"METRO COMMUNITY PROVIDER NETWORK, INC.",Federally Qualified Health Centers,80 S Teller St,Lakewood,CO,Jefferson,80226-2044,CON001,Denver Health,"STEIN KIDS HEALTH CENTER: 80 S Teller St, Lakewood, CO, 80226-2044: Denver Health","80 S Teller St, Lakewood, CO, 80226-2044"
1013203876,Colfax Health Center at JCMH,Physician,Federally Qualified Health Centers,"METRO COMMUNITY PROVIDER NETWORK, INC.",Federally Qualified Health Centers,9485 W Colfax Ave,Lakewood,CO,Jefferson,80215-3918,CON001,Denver Health,"Colfax Health Center at JCMH: 9485 W Colfax Ave, Lakewood, CO, 80215-3918: Denver Health","9485 W Colfax Ave, Lakewood, CO, 80215-3918"
1205122066,MCPN Arapahoe Douglas Health Center,Physician,Federally Qualified Health Centers,"METRO COMMUNITY PROVIDER NETWORK, INC.",Federally Qualified Health Centers,61 W Davies Ave N,Littleton,CO,Arapahoe,80120-5252,CON001,Denver Health,"MCPN Arapahoe Douglas Health Center: 61 W Davies Ave N, Littleton, CO, 80120-5252: Denver Health","61 W Davies Ave N, Littleton, CO, 80120-5252"
1881743631,Planned Parenthood of the Rocky Mountains--Parker Express,Physician,Family Planning Providers,"Planned Parenthood of the Rocky Mountains, Inc.",Family Planning Providers,12543 N State Highway 83,Parker,CO,Douglas,80134-8800,CON001,Denver Health,"Planned Parenthood of the Rocky Mountains--Parker Express: 12543 N State Highway 83, Parker, CO, 80134-8800: Denver Health","12543 N State Highway 83, Parker, CO, 80134-8800"
1881743631,Planned Parenthood of the Rocky Mountains--Parker Express,Physician,Family Planning Providers,"Planned Parenthood of the Rocky Mountains, Inc.", Rural Health Clinics,12543 N State Highway 83,Parker,CO,Douglas,80134-8800,CON001,Denver Health,"Planned Parenthood of the Rocky Mountains--Parker Express: 12543 N State Highway 83, Parker, CO, 80134-8800: Denver Health","12543 N State Highway 83, Parker, CO, 80134-8800"
1881743631,Planned Parenthood of the Rocky Mountains--Parker Express,Physician,Family Planning Providers,"Planned Parenthood of the Rocky Mountains, Inc.", Sexually Transmitted Disease Clinics,12543 N State Highway 83,Parker,CO,Douglas,80134-8800,CON001,Denver Health,"Planned Parenthood of the Rocky Mountains--Parker Express: 12543 N State Highway 83, Parker, CO, 80134-8800: Denver Health","12543 N State Highway 83, Parker, CO, 80134-8800"
1316233174,Independence Health Center at JCMH,Physician,Federally Qualified Health Centers,"METRO COMMUNITY PROVIDER NETWORK, INC.",Federally Qualified Health Centers,4851 Independence St,Wheat Ridge,CO,Jefferson,80033-6715,CON001,Denver Health,"Independence Health Center at JCMH: 4851 Independence St, Wheat Ridge, CO, 80033-6715: Denver Health","4851 Independence St, Wheat Ridge, CO, 80033-6715"
1013911437,Northeast Colorado Health Department,Non-Physician,"Family Planning Providers, 002 Family Medicine, 005 Primary Care - Physician Assistant, 006 Primary Care - Nurse Practitioner",Northeast Colorado Health Department,Family Planning Providers,77 Main Ave,Akron,CO,Washington,80720-1439,"CON001, CON002",Friday,"Northeast Colorado Health Department: 77 Main Ave, Akron, CO, 80720-1439: Friday","77 Main Ave, Akron, CO, 80720-1439"
1881743631,Planned Parenthood of the Rocky Mountains - Alamosa,Non-Physician,"Family Planning Providers, Rural Health Clinics, Sexually Transmitted Disease Clinics, 001 General Practice, 002 Family Medicine, 005 Primary Care - Physician Assistant, 006 Primary Care - Nurse Practitioner, 016 Gynecology (OB/GYN)","Planned Parenthood of the Rocky Mountains, Inc.",Family Planning Providers,1560 12th St,Alamosa,CO,Alamosa,81101-3709,"CON001, CON002",Friday,"Planned Parenthood of the Rocky Mountains - Alamosa: 1560 12th St, Alamosa, CO, 81101-3709: Friday","1560 12th St, Alamosa, CO, 81101-3709"
1881743631,Planned Parenthood of the Rocky Mountains - Alamosa,Non-Physician,"Family Planning Providers, Rural Health Clinics, Sexually Transmitted Disease Clinics, 001 General Practice, 002 Family Medicine, 005 Primary Care - Physician Assistant, 006 Primary Care - Nurse Practitioner, 016 Gynecology (OB/GYN)","Planned Parenthood of the Rocky Mountains, Inc.", Rural Health Clinics,1560 12th St,Alamosa,CO,Alamosa,81101-3709,"CON001, CON002",Friday,"Planned Parenthood of the Rocky Mountains - Alamosa: 1560 12th St, Alamosa, CO, 81101-3709: Friday","1560 12th St, Alamosa, CO, 81101-3709"
1881743631,Planned Parenthood of the Rocky Mountains - Alamosa,Non-Physician,"Family Planning Providers, Rural Health Clinics, Sexually Transmitted Disease Clinics, 001 General Practice, 002 Family Medicine, 005 Primary Care - Physician Assistant, 006 Primary Care - Nurse Practitioner, 016 Gynecology (OB/GYN)","Planned Parenthood of the Rocky Mountains, Inc.", Sexually Transmitted Disease Clinics,1560 12th St,Alamosa,CO,Alamosa,81101-3709,"CON001, CON002",Friday,"Planned Parenthood of the Rocky Mountains - Alamosa: 1560 12th St, Alamosa, CO, 81101-3709: Friday","1560 12th St, Alamosa, CO, 81101-3709"
1821010448,AVONDALE CLINIC,Non-Physician,"Dental Providers, Family Planning Providers, Federally Qualified Health Centers, Ryan White Providers, Sexually Transmitted Disease Clinics, 001 General Practice, 002 Family Medicine, 005 Primary Care - Physician Assistant, 006 Primary Care - Nurse Practitioner, 016 Gynecology (OB/GYN), 101 Pediatrics - Routine/Primary Care, 102 Licensed Clinical Social Workers, Pharmacy",PUEBLO COMMUNITY HEALTH CENTER,Federally Qualified Health Centers,328 Avondale Blvd,Avondale,CO,Pueblo,81022-8700,"CON001, CON002",Friday,"AVONDALE CLINIC: 328 Avondale Blvd, Avondale, CO, 81022-8700: Friday","328 Avondale Blvd, Avondale, CO, 81022-8700"
1336245828,"Children's Hospital Colorado Orthopedic Care, Centennial",Non-Physician,Outpatient Hospital Clinics,Children's Hospital Colorado,Outpatient Hospital Clinics,9094 E Mineral Cir,Centennial,CO,Arapahoe,80112-7201,"CON001, CON002",Friday,"Children's Hospital Colorado Orthopedic Care, Centennial: 9094 E Mineral Cir, Centennial, CO, 80112-7201: Friday","9094 E Mineral Cir, Centennial, CO, 80112-7201"
1790998953,Cheyenne County Public Health Office,Non-Physician,"Federally Qualified Health Centers, 001 General Practice, 002 Family Medicine, 005 Primary Care - Physician Assistant, 006 Primary Care - Nurse Practitioner, 016 Gynecology (OB/GYN), 101 Pediatrics - Routine/Primary Care","VALLEY WIDE HEALTH SYSTEMS, INC.",Federally Qualified Health Centers,615 N 5th St W,Cheyenne Wells,CO,Cheyenne,80810,"CON001, CON002",Friday,"Cheyenne County Public Health Office: 615 N 5th St W, Cheyenne Wells, CO, 80810: Friday","615 N 5th St W, Cheyenne Wells, CO, 80810"
1164752812,Entrada School Based Health Center,Non-Physician,Federally Qualified Health Centers,PEAK VISTA COMMUNITY HEALTH CENTERS,Federally Qualified Health Centers,1740 Pepperwood Dr,Colorado Springs,CO,El Paso,80910-1525,"CON001, CON002",Friday,"Entrada School Based Health Center: 1740 Pepperwood Dr, Colorado Springs, CO, 80910-1525: Friday","1740 Pepperwood Dr, Colorado Springs, CO, 80910-1525"
1396048054,Logan Health Center at Myron Stratton,Non-Physician,Federally Qualified Health Centers,PEAK VISTA COMMUNITY HEALTH CENTERS,Federally Qualified Health Centers,430 Gold Pass Hts,Colorado Springs,CO,El Paso,80906-3501,"CON001, CON002",Friday,"Logan Health Center at Myron Stratton: 430 Gold Pass Hts, Colorado Springs, CO, 80906-3501: Friday","430 Gold Pass Hts, Colorado Springs, CO, 80906-3501"
1407150121,Moreno Health Center,Non-Physician,Federally Qualified Health Centers,PEAK VISTA COMMUNITY HEALTH CENTERS,Federally Qualified Health Centers,875 W Moreno Ave,Colorado Springs,CO,El Paso,80905-1731,"CON001, CON002",Friday,"Moreno Health Center: 875 W Moreno Ave, Colorado Springs, CO, 80905-1731: Friday","875 W Moreno Ave, Colorado Springs, CO, 80905-1731"
1801297593,Community Reach Center Salud,Non-Physician,Federally Qualified Health Centers,"PLAN DE SALUD DEL VALLE, INC.",Federally Qualified Health Centers,4371 E 72nd Ave,Commerce City,CO,Adams,80022-1471,"CON001, CON002, CON003",Friday,"Community Reach Center Salud: 4371 E 72nd Ave, Commerce City, CO, 80022-1471: Friday","4371 E 72nd Ave, Commerce City, CO, 80022-1471"
1881743631,Planned Parenthood of the Rocky Mountains--Cortez,Non-Physician,"Family Planning Providers, Rural Health Clinics, Sexually Transmitted Disease Clinics, 001 General Practice, 002 Family Medicine, 005 Primary Care - Physician Assistant, 006 Primary Care - Nurse Practitioner, 016 Gynecology (OB/GYN)","Planned Parenthood of the Rocky Mountains, Inc.",Family Planning Providers,20 W North St,Cortez,CO,Montezuma,81321-3117,"CON001, CON002",Friday,"Planned Parenthood of the Rocky Mountains--Cortez: 20 W North St, Cortez, CO, 81321-3117: Friday","20 W North St, Cortez, CO, 81321-3117"
1881743631,Planned Parenthood of the Rocky Mountains--Cortez,Non-Physician,"Family Planning Providers, Rural Health Clinics, Sexually Transmitted Disease Clinics, 001 General Practice, 002 Family Medicine, 005 Primary Care - Physician Assistant, 006 Primary Care - Nurse Practitioner, 016 Gynecology (OB/GYN)","Planned Parenthood of the Rocky Mountains, Inc.", Rural Health Clinics,20 W North St,Cortez,CO,Montezuma,81321-3117,"CON001, CON002",Friday,"Planned Parenthood of the Rocky Mountains--Cortez: 20 W North St, Cortez, CO, 81321-3117: Friday","20 W North St, Cortez, CO, 81321-3117"
1881743631,Planned Parenthood of the Rocky Mountains--Cortez,Non-Physician,"Family Planning Providers, Rural Health Clinics, Sexually Transmitted Disease Clinics, 001 General Practice, 002 Family Medicine, 005 Primary Care - Physician Assistant, 006 Primary Care - Nurse Practitioner, 016 Gynecology (OB/GYN)","Planned Parenthood of the Rocky Mountains, Inc.", Sexually Transmitted Disease Clinics,20 W North St,Cortez,CO,Montezuma,81321-3117,"CON001, CON002",Friday,"Planned Parenthood of the Rocky Mountains--Cortez: 20 W North St, Cortez, CO, 81321-3117: Friday","20 W North St, Cortez, CO, 81321-3117"
1003092131,Larimer County Health Department Family Planning Program-Estes Park,Non-Physician,Family Planning Providers,Larimer County Health Department,Family Planning Providers,1601 Brodie Ave,Estes Park,CO,Larimer,80517-7486,"CON001, CON002",Friday,"Larimer County Health Department Family Planning Program-Estes Park: 1601 Brodie Ave, Estes Park, CO, 80517-7486: Friday","1601 Brodie Ave, Estes Park, CO, 80517-7486"
1003092131,Larimer County Health Department Family Planning Program-Fort Collins,Non-Physician,Family Planning Providers,Larimer County Health Department,Family Planning Providers,1525 Blue Spruce Dr,Fort Collins,CO,Larimer,80524-2004,"CON001, CON002",Friday,"Larimer County Health Department Family Planning Program-Fort Collins: 1525 Blue Spruce Dr, Fort Collins, CO, 80524-2004: Friday","1525 Blue Spruce Dr, Fort Collins, CO, 80524-2004"
1013911437,Northeast Colorado Health Department,Non-Physician,Family Planning Providers,Northeast Colorado Health Department,Family Planning Providers,228 W Railroad Ave,Fort Morgan,CO,Morgan,80701-2324,"CON001, CON002",Friday,"Northeast Colorado Health Department: 228 W Railroad Ave, Fort Morgan, CO, 80701-2324: Friday","228 W Railroad Ave, Fort Morgan, CO, 80701-2324"
1881743631,Planned Parenthood of the Rocky Mountains - Granby,Non-Physician,"Family Planning Providers, Sexually Transmitted Disease Clinics, 001 General Practice, 002 Family Medicine, 005 Primary Care - Physician Assistant, 006 Primary Care - Nurse Practitioner, 016 Gynecology (OB/GYN)","Planned Parenthood of the Rocky Mountains, Inc.",Family Planning Providers,236 Agate Ave.,Granby,CO,Grand,80446-0088,"CON001, CON002",Friday,"Planned Parenthood of the Rocky Mountains - Granby: 236 Agate Ave., Granby, CO, 80446-0088: Friday","236 Agate Ave., Granby, CO, 80446-0088"
1881743631,Planned Parenthood of the Rocky Mountains - Granby,Non-Physician,"Family Planning Providers, Sexually Transmitted Disease Clinics, 001 General Practice, 002 Family Medicine, 005 Primary Care - Physician Assistant, 006 Primary Care - Nurse Practitioner, 016 Gynecology (OB/GYN)","Planned Parenthood of the Rocky Mountains, Inc.", Sexually Transmitted Disease Clinics,236 Agate Ave.,Granby,CO,Grand,80446-0088,"CON001, CON002",Friday,"Planned Parenthood of the Rocky Mountains - Granby: 236 Agate Ave., Granby, CO, 80446-0088: Friday","236 Agate Ave., Granby, CO, 80446-0088"
1790998953,Farmworker Health Services Clinic - Grand Junction,Non-Physician,"Federally Qualified Health Centers, 001 General Practice, 002 Family Medicine, 005 Primary Care - Physician Assistant, 006 Primary Care - Nurse Practitioner, 016 Gynecology (OB/GYN), 101 Pediatrics - Routine/Primary Care","VALLEY WIDE HEALTH SYSTEMS, INC.",Federally Qualified Health Centers,2333 N 6th St,Grand Junction,CO,Mesa,81501-2001,"CON001, CON002",Friday,"Farmworker Health Services Clinic - Grand Junction: 2333 N 6th St, Grand Junction, CO, 81501-2001: Friday","2333 N 6th St, Grand Junction, CO, 81501-2001"
1881743631,Planned Parenthood of the Rocky Mountains--Greeley,Non-Physician,"Family Planning Providers, Sexually Transmitted Disease Clinics, 001 General Practice, 002 Family Medicine, 005 Primary Care - Physician Assistant, 006 Primary Care - Nurse Practitioner, 016 Gynecology (OB/GYN)","Planned Parenthood of the Rocky Mountains, Inc.",Family Planning Providers,3487 W 10th St,Greeley,CO,Weld,80634-5361,"CON001, CON002",Friday,"Planned Parenthood of the Rocky Mountains--Greeley: 3487 W 10th St, Greeley, CO, 80634-5361: Friday","3487 W 10th St, Greeley, CO, 80634-5361"
1881743631,Planned Parenthood of the Rocky Mountains--Greeley,Non-Physician,"Family Planning Providers, Sexually Transmitted Disease Clinics, 001 General Practice, 002 Family Medicine, 005 Primary Care - Physician Assistant, 006 Primary Care - Nurse Practitioner, 016 Gynecology (OB/GYN)","Planned Parenthood of the Rocky Mountains, Inc.", Sexually Transmitted Disease Clinics,3487 W 10th St,Greeley,CO,Weld,80634-5361,"CON001, CON002",Friday,"Planned Parenthood of the Rocky Mountains--Greeley: 3487 W 10th St, Greeley, CO, 80634-5361: Friday","3487 W 10th St, Greeley, CO, 80634-5361"
1932596350,High Plains Holly Clinic,Non-Physician,"Federally Qualified Health Centers, Rural Health Clinics","HIGH PLAINS COMMUNITY HEALTH CENTER, INCORPORATED",Federally Qualified Health Centers,410 W. Colorado,Holly,CO,Prowers,81047,"CON001, CON002",Friday,"High Plains Holly Clinic: 410 W. Colorado, Holly, CO, 81047: Friday","410 W. Colorado, Holly, CO, 81047"
1932596350,High Plains Holly Clinic,Non-Physician,"Federally Qualified Health Centers, Rural Health Clinics","HIGH PLAINS COMMUNITY HEALTH CENTER, INCORPORATED", Rural Health Clinics,410 W. Colorado,Holly,CO,Prowers,81047,"CON001, CON002",Friday,"High Plains Holly Clinic: 410 W. Colorado, Holly, CO, 81047: Friday","410 W. Colorado, Holly, CO, 81047"
1013911437,Northeast Colorado Health Department,Non-Physician,Family Planning Providers,Northeast Colorado Health Department,Family Planning Providers,127 E Denver St,Holyoke,CO,Phillips,80734-1553,"CON001, CON002",Friday,"Northeast Colorado Health Department: 127 E Denver St, Holyoke, CO, 80734-1553: Friday","127 E Denver St, Holyoke, CO, 80734-1553"
1013911437,Northeast Colorado Health Department,Non-Physician,Family Planning Providers,Northeast Colorado Health Department,Family Planning Providers,118 W 3rd St,Julesburg,CO,Sedgwick,80737-1542,"CON001, CON002",Friday,"Northeast Colorado Health Department: 118 W 3rd St, Julesburg, CO, 80737-1542: Friday","118 W 3rd St, Julesburg, CO, 80737-1542"
1205255304,Health Center at Kiowa,Non-Physician,Federally Qualified Health Centers,PEAK VISTA COMMUNITY HEALTH CENTERS,Federally Qualified Health Centers,320 Comanche St,Kiowa,CO,Elbert,80117,"CON001, CON002",Friday,"Health Center at Kiowa: 320 Comanche St, Kiowa, CO, 80117: Friday","320 Comanche St, Kiowa, CO, 80117"
1770865644,High Plains Adult Community Health Center,Non-Physician,"Federally Qualified Health Centers, Rural Health Clinics","HIGH PLAINS COMMUNITY HEALTH CENTER, INCORPORATED",Federally Qualified Health Centers,2221 Wellness Way,Lamar,CO,Prowers,81052-3867,"CON001, CON002",Friday,"High Plains Adult Community Health Center: 2221 Wellness Way, Lamar, CO, 81052-3867: Friday","2221 Wellness Way, Lamar, CO, 81052-3867"
1770865644,High Plains Adult Community Health Center,Non-Physician,"Federally Qualified Health Centers, Rural Health Clinics","HIGH PLAINS COMMUNITY HEALTH CENTER, INCORPORATED", Rural Health Clinics,2221 Wellness Way,Lamar,CO,Prowers,81052-3867,"CON001, CON002",Friday,"High Plains Adult Community Health Center: 2221 Wellness Way, Lamar, CO, 81052-3867: Friday","2221 Wellness Way, Lamar, CO, 81052-3867"
1275813982,LCC CAMPUS HEALTH CLINIC,Non-Physician,"Federally Qualified Health Centers, Rural Health Clinics","HIGH PLAINS COMMUNITY HEALTH CENTER, INCORPORATED",Federally Qualified Health Centers,2401 S Main St,Lamar,CO,Prowers,81052-3912,"CON001, CON002",Friday,"LCC CAMPUS HEALTH CLINIC: 2401 S Main St, Lamar, CO, 81052-3912: Friday","2401 S Main St, Lamar, CO, 81052-3912"
1275813982,LCC CAMPUS HEALTH CLINIC,Non-Physician,"Federally Qualified Health Centers, Rural Health Clinics","HIGH PLAINS COMMUNITY HEALTH CENTER, INCORPORATED", Rural Health Clinics,2401 S Main St,Lamar,CO,Prowers,81052-3912,"CON001, CON002",Friday,"LCC CAMPUS HEALTH CLINIC: 2401 S Main St, Lamar, CO, 81052-3912: Friday","2401 S Main St, Lamar, CO, 81052-3912"
1003092131,Larimer County Health Department Family Planning Program-Loveland,Non-Physician,Family Planning Providers,Larimer County Health Department,Family Planning Providers,205 E 6th St,Loveland,CO,Larimer,80537-5682,"CON001, CON002",Friday,"Larimer County Health Department Family Planning Program-Loveland: 205 E 6th St, Loveland, CO, 80537-5682: Friday","205 E 6th St, Loveland, CO, 80537-5682"
1881681104,Moffat Family Health Center,Non-Physician,"Federally Qualified Health Centers, 001 General Practice, 002 Family Medicine, 005 Primary Care - Physician Assistant, 006 Primary Care - Nurse Practitioner, 016 Gynecology (OB/GYN), 101 Pediatrics - Routine/Primary Care","VALLEY WIDE HEALTH SYSTEMS, INC.",Federally Qualified Health Centers,545 Moffat Way,Moffat,CO,Saguache,81143,"CON001, CON002",Friday,"Moffat Family Health Center: 545 Moffat Way, Moffat, CO, 81143: Friday","545 Moffat Way, Moffat, CO, 81143"
1881743631,Planned Parenthood of the Rocky Mountains--Parker Express,Non-Physician,"Family Planning Providers, Rural Health Clinics, Sexually Transmitted Disease Clinics","Planned Parenthood of the Rocky Mountains, Inc.",Family Planning Providers,12543 N State Highway 83,Parker,CO,Douglas,80134-8800,"CON001, CON002, CON003",Friday,"Planned Parenthood of the Rocky Mountains--Parker Express: 12543 N State Highway 83, Parker, CO, 80134-8800: Friday","12543 N State Highway 83, Parker, CO, 80134-8800"
1881743631,Planned Parenthood of the Rocky Mountains--Parker Express,Non-Physician,"Family Planning Providers, Rural Health Clinics, Sexually Transmitted Disease Clinics","Planned Parenthood of the Rocky Mountains, Inc.", Rural Health Clinics,12543 N State Highway 83,Parker,CO,Douglas,80134-8800,"CON001, CON002, CON003",Friday,"Planned Parenthood of the Rocky Mountains--Parker Express: 12543 N State Highway 83, Parker, CO, 80134-8800: Friday","12543 N State Highway 83, Parker, CO, 80134-8800"
1881743631,Planned Parenthood of the Rocky Mountains--Parker Express,Non-Physician,"Family Planning Providers, Rural Health Clinics, Sexually Transmitted Disease Clinics","Planned Parenthood of the Rocky Mountains, Inc.", Sexually Transmitted Disease Clinics,12543 N State Highway 83,Parker,CO,Douglas,80134-8800,"CON001, CON002, CON003",Friday,"Planned Parenthood of the Rocky Mountains--Parker Express: 12543 N State Highway 83, Parker, CO, 80134-8800: Friday","12543 N State Highway 83, Parker, CO, 80134-8800"
1619224987,Falcon Peak School Based Health Center,Non-Physician,Federally Qualified Health Centers,PEAK VISTA COMMUNITY HEALTH CENTERS,Federally Qualified Health Centers,12050 Falcon Hwy,Peyton,CO,El Paso,80831-8076,"CON001, CON002",Friday,"Falcon Peak School Based Health Center: 12050 Falcon Hwy, Peyton, CO, 80831-8076: Friday","12050 Falcon Hwy, Peyton, CO, 80831-8076"
1144589425,GRAND AVENUE HOMELESS CLINIC,Non-Physician,Federally Qualified Health Centers,PUEBLO COMMUNITY HEALTH CENTER,Federally Qualified Health Centers,1008 N Grand Ave,Pueblo,CO,Pueblo,81003-2916,"CON001, CON002",Friday,"GRAND AVENUE HOMELESS CLINIC: 1008 N Grand Ave, Pueblo, CO, 81003-2916: Friday","1008 N Grand Ave, Pueblo, CO, 81003-2916"
1396098828,County High School SBWC,Non-Physician,"Dental Providers, Family Planning Providers, Federally Qualified Health Centers, Ryan White Providers, Sexually Transmitted Disease Clinics, 001 General Practice, 002 Family Medicine, 005 Primary Care - Physician Assistant, 006 Primary Care - Nurse Practitioner, 016 Gynecology (OB/GYN), 101 Pediatrics - Routine/Primary Care, 102 Licensed Clinical Social Workers, Pharmacy",PUEBLO COMMUNITY HEALTH CENTER,Federally Qualified Health Centers,1050 35th Ln,Pueblo,CO,Pueblo,81006-9426,"CON001, CON002",Friday,"County High School SBWC: 1050 35th Ln, Pueblo, CO, 81006-9426: Friday","1050 35th Ln, Pueblo, CO, 81006-9426"
1700139813,Central High School SBWC,Non-Physician,"Dental Providers, Family Planning Providers, Federally Qualified Health Centers, Ryan White Providers, Sexually Transmitted Disease Clinics, 001 General Practice, 002 Family Medicine, 005 Primary Care - Physician Assistant, 006 Primary Care - Nurse Practitioner, 016 Gynecology (OB/GYN), 101 Pediatrics - Routine/Primary Care, 102 Licensed Clinical Social Workers, Pharmacy",PUEBLO COMMUNITY HEALTH CENTER,Federally Qualified Health Centers,216 E Orman Ave,Pueblo,CO,Pueblo,81004-2144,"CON001, CON002",Friday,"Central High School SBWC: 216 E Orman Ave, Pueblo, CO, 81004-2144: Friday","216 E Orman Ave, Pueblo, CO, 81004-2144"
1013261023,Risley Middle School SBWC,Non-Physician,"Dental Providers, Family Planning Providers, Federally Qualified Health Centers, Ryan White Providers, Sexually Transmitted Disease Clinics, 001 General Practice, 002 Family Medicine, 005 Primary Care - Physician Assistant, 006 Primary Care - Nurse Practitioner, 016 Gynecology (OB/GYN), 101 Pediatrics - Routine/Primary Care, 102 Licensed Clinical Social Workers, Pharmacy",PUEBLO COMMUNITY HEALTH CENTER,Federally Qualified Health Centers,625 N Monument Ave,Pueblo,CO,Pueblo,81001-5706,"CON001, CON002",Friday,"Risley Middle School SBWC: 625 N Monument Ave, Pueblo, CO, 81001-5706: Friday","625 N Monument Ave, Pueblo, CO, 81001-5706"
1912251927,Heroes Academy SBWC,Non-Physician,"Dental Providers, Family Planning Providers, Federally Qualified Health Centers, Ryan White Providers, Sexually Transmitted Disease Clinics, 001 General Practice, 002 Family Medicine, 005 Primary Care - Physician Assistant, 006 Primary Care - Nurse Practitioner, 016 Gynecology (OB/GYN), 101 Pediatrics - Routine/Primary Care, 102 Licensed Clinical Social Workers, Pharmacy",PUEBLO COMMUNITY HEALTH CENTER,Federally Qualified Health Centers,715 W 20th St,Pueblo,CO,Pueblo,81003-4052,"CON001, CON002",Friday,"Heroes Academy SBWC: 715 W 20th St, Pueblo, CO, 81003-4052: Friday","715 W 20th St, Pueblo, CO, 81003-4052"
1649524653,East High School SBWC,Non-Physician,"Dental Providers, Family Planning Providers, Federally Qualified Health Centers, Ryan White Providers, Sexually Transmitted Disease Clinics, 001 General Practice, 002 Family Medicine, 005 Primary Care - Physician Assistant, 006 Primary Care - Nurse Practitioner, 016 Gynecology (OB/GYN), 101 Pediatrics - Routine/Primary Care, 102 Licensed Clinical Social Workers, Pharmacy",PUEBLO COMMUNITY HEALTH CENTER,Federally Qualified Health Centers,9 Macneil Rd,Pueblo,CO,Pueblo,81001-1931,"CON001, CON002",Friday,"East High School SBWC: 9 Macneil Rd, Pueblo, CO, 81001-1931: Friday","9 Macneil Rd, Pueblo, CO, 81001-1931"
1881743631,Planned Parenthood of the Rocky Mountains--Salida,Non-Physician,"Family Planning Providers, Rural Health Clinics, Sexually Transmitted Disease Clinics, 001 General Practice, 002 Family Medicine, 005 Primary Care - Physician Assistant, 006 Primary Care - Nurse Practitioner, 016 Gynecology (OB/GYN)","Planned Parenthood of the Rocky Mountains, Inc.",Family Planning Providers,233 E 2nd St,Salida,CO,Chaffee,81201-2116,"CON001, CON002",Friday,"Planned Parenthood of the Rocky Mountains--Salida: 233 E 2nd St, Salida, CO, 81201-2116: Friday","233 E 2nd St, Salida, CO, 81201-2116"
1881743631,Planned Parenthood of the Rocky Mountains--Salida,Non-Physician,"Family Planning Providers, Rural Health Clinics, Sexually Transmitted Disease Clinics, 001 General Practice, 002 Family Medicine, 005 Primary Care - Physician Assistant, 006 Primary Care - Nurse Practitioner, 016 Gynecology (OB/GYN)","Planned Parenthood of the Rocky Mountains, Inc.", Rural Health Clinics,233 E 2nd St,Salida,CO,Chaffee,81201-2116,"CON001, CON002",Friday,"Planned Parenthood of the Rocky Mountains--Salida: 233 E 2nd St, Salida, CO, 81201-2116: Friday","233 E 2nd St, Salida, CO, 81201-2116"
1881743631,Planned Parenthood of the Rocky Mountains--Salida,Non-Physician,"Family Planning Providers, Rural Health Clinics, Sexually Transmitted Disease Clinics, 001 General Practice, 002 Family Medicine, 005 Primary Care - Physician Assistant, 006 Primary Care - Nurse Practitioner, 016 Gynecology (OB/GYN)","Planned Parenthood of the Rocky Mountains, Inc.", Sexually Transmitted Disease Clinics,233 E 2nd St,Salida,CO,Chaffee,81201-2116,"CON001, CON002",Friday,"Planned Parenthood of the Rocky Mountains--Salida: 233 E 2nd St, Salida, CO, 81201-2116: Friday","233 E 2nd St, Salida, CO, 81201-2116"
1881743631,Planned Parenthood of the Rocky Mountains - Steamboat Springs,Non-Physician,"Family Planning Providers, Rural Health Clinics, Sexually Transmitted Disease Clinics, 001 General Practice, 002 Family Medicine, 005 Primary Care - Physician Assistant, 006 Primary Care - Nurse Practitioner, 016 Gynecology (OB/GYN)","Planned Parenthood of the Rocky Mountains, Inc.",Family Planning Providers,111 11th St,Steamboat Springs,CO,Routt,80477,"CON001, CON002",Friday,"Planned Parenthood of the Rocky Mountains - Steamboat Springs: 111 11th St, Steamboat Springs, CO, 80477: Friday","111 11th St, Steamboat Springs, CO, 80477"
1881743631,Planned Parenthood of the Rocky Mountains - Steamboat Springs,Non-Physician,"Family Planning Providers, Rural Health Clinics, Sexually Transmitted Disease Clinics, 001 General Practice, 002 Family Medicine, 005 Primary Care - Physician Assistant, 006 Primary Care - Nurse Practitioner, 016 Gynecology (OB/GYN)","Planned Parenthood of the Rocky Mountains, Inc.", Rural Health Clinics,111 11th St,Steamboat Springs,CO,Routt,80477,"CON001, CON002",Friday,"Planned Parenthood of the Rocky Mountains - Steamboat Springs: 111 11th St, Steamboat Springs, CO, 80477: Friday","111 11th St, Steamboat Springs, CO, 80477"
1881743631,Planned Parenthood of the Rocky Mountains - Steamboat Springs,Non-Physician,"Family Planning Providers, Rural Health Clinics, Sexually Transmitted Disease Clinics, 001 General Practice, 002 Family Medicine, 005 Primary Care - Physician Assistant, 006 Primary Care - Nurse Practitioner, 016 Gynecology (OB/GYN)","Planned Parenthood of the Rocky Mountains, Inc.", Sexually Transmitted Disease Clinics,111 11th St,Steamboat Springs,CO,Routt,80477,"CON001, CON002",Friday,"Planned Parenthood of the Rocky Mountains - Steamboat Springs: 111 11th St, Steamboat Springs, CO, 80477: Friday","111 11th St, Steamboat Springs, CO, 80477"
1013911437,Northeast Colorado Health Department,Non-Physician,Family Planning Providers,Northeast Colorado Health Dept,Family Planning Providers,700 Columbine St,Sterling,CO,Logan,80751-3728,"CON001, CON002",Friday,"Northeast Colorado Health Department: 700 Columbine St, Sterling, CO, 80751-3728: Friday","700 Columbine St, Sterling, CO, 80751-3728"
1790966174,Walsenburg Clinic,Non-Physician,Federally Qualified Health Centers,Pueblo Community Health Center,Federally Qualified Health Centers,129 Kansas Ave,Walsenburg,CO,Huerfano,81089-1818,"CON001, CON002",Friday,"Walsenburg Clinic: 129 Kansas Ave, Walsenburg, CO, 81089-1818: Friday","129 Kansas Ave, Walsenburg, CO, 81089-1818"
1588803050,Walsh Medical Clinic,Non-Physician,Rural Health Clinics,Walsh Medical Clinic,Rural Health Clinics,137 S Kansas St,Walsh,CO,Baca,81090,"CON001, CON002",Friday,"Walsh Medical Clinic: 137 S Kansas St, Walsh, CO, 81090: Friday","137 S Kansas St, Walsh, CO, 81090"
1912349465,High Plains Wiley Clinic,Non-Physician,"Federally Qualified Health Centers, Rural Health Clinics","HIGH PLAINS COMMUNITY HEALTH CENTER, INCORPORATED",Federally Qualified Health Centers,302 Main St,Wiley,CO,Prowers,81092,"CON001, CON002",Friday,"High Plains Wiley Clinic: 302 Main St, Wiley, CO, 81092: Friday","302 Main St, Wiley, CO, 81092"
1912349465,High Plains Wiley Clinic,Non-Physician,"Federally Qualified Health Centers, Rural Health Clinics","HIGH PLAINS COMMUNITY HEALTH CENTER, INCORPORATED", Rural Health Clinics,302 Main St,Wiley,CO,Prowers,81092,"CON001, CON002",Friday,"High Plains Wiley Clinic: 302 Main St, Wiley, CO, 81092: Friday","302 Main St, Wiley, CO, 81092"
1013911437,Northeast Colorado Health Department,Non-Physician,Family Planning Providers,Northeast Colorado Health Department,Family Planning Providers,529 N Albany St,Yuma,CO,Yuma,80759-1526,"CON001, CON002",Friday,"Northeast Colorado Health Department: 529 N Albany St, Yuma, CO, 80759-1526: Friday","529 N Albany St, Yuma, CO, 80759-1526"
1649605536,MCPN - Health &Wellness Center at the Asian Pacific Development Center,Non-Physician,Federally Qualified Health Centers,"METRO COMMUNITY PROVIDER NETWORK, INC.",Federally Qualified Health Centers,1537 Alton St,Aurora,CO,Adams,80010-1712,CON003,Friday,"MCPN - Health &Wellness Center at the Asian Pacific Development Center: 1537 Alton St, Aurora, CO, 80010-1712: Friday","1537 Alton St, Aurora, CO, 80010-1712"
1699930651,JEFFERSON HIGH SCHOOL KIDS & TEENS HEALTH CENTER,Non-Physician,Federally Qualified Health Centers,"METRO COMMUNITY PROVIDER NETWORK, INC.",Federally Qualified Health Centers,2305 Pierce St,Edgewater,CO,Jefferson,80214-1031,CON003,Friday,"JEFFERSON HIGH SCHOOL KIDS & TEENS HEALTH CENTER: 2305 Pierce St, Edgewater, CO, 80214-1031: Friday","2305 Pierce St, Edgewater, CO, 80214-1031"
1437314481,Alameda High School Kids and Teens Health Center,Non-Physician,Federally Qualified Health Centers,Metro Community Provider Network,Federally Qualified Health Centers,1255 S Wadsworth Blvd,Lakewood,CO,Jefferson,80232-5406,CON003,Friday,"Alameda High School Kids and Teens Health Center: 1255 S Wadsworth Blvd, Lakewood, CO, 80232-5406: Friday","1255 S Wadsworth Blvd, Lakewood, CO, 80232-5406"
1326203399,STEIN KIDS HEALTH CENTER,Non-Physician,Federally Qualified Health Centers,"METRO COMMUNITY PROVIDER NETWORK, INC.",Federally Qualified Health Centers,80 S Teller St,Lakewood,CO,Jefferson,80226-2044,CON003,Friday,"STEIN KIDS HEALTH CENTER: 80 S Teller St, Lakewood, CO, 80226-2044: Friday","80 S Teller St, Lakewood, CO, 80226-2044"
1013203876,Colfax Health Center at JCMH,Non-Physician,Federally Qualified Health Centers,"METRO COMMUNITY PROVIDER NETWORK, INC.",Federally Qualified Health Centers,9485 W Colfax Ave,Lakewood,CO,Jefferson,80215-3918,CON003,Friday,"Colfax Health Center at JCMH: 9485 W Colfax Ave, Lakewood, CO, 80215-3918: Friday","9485 W Colfax Ave, Lakewood, CO, 80215-3918"
1205122066,MCPN Arapahoe Douglas Health Center,Non-Physician,Federally Qualified Health Centers,"METRO COMMUNITY PROVIDER NETWORK, INC.",Federally Qualified Health Centers,61 W Davies Ave N,Littleton,CO,Arapahoe,80120-5252,CON003,Friday,"MCPN Arapahoe Douglas Health Center: 61 W Davies Ave N, Littleton, CO, 80120-5252: Friday","61 W Davies Ave N, Littleton, CO, 80120-5252"
1881743631,Planned Parenthood of the Rocky Mountains--Longmont,Non-Physician,"Family Planning Providers, Rural Health Clinics, Sexually Transmitted Disease Clinics, 001 General Practice, 002 Family Medicine, 005 Primary Care - Physician Assistant, 006 Primary Care - Nurse Practitioner, 016 Gynecology (OB/GYN)","Planned Parenthood of the Rocky Mountains, Inc.",Family Planning Providers,195 S Main St,Longmont,CO,Boulder,80501-6218,"CON001, CON002",Friday,"Planned Parenthood of the Rocky Mountains--Longmont: 195 S Main St, Longmont, CO, 80501-6218: Friday","195 S Main St, Longmont, CO, 80501-6218"
1881743631,Planned Parenthood of the Rocky Mountains--Longmont,Non-Physician,"Family Planning Providers, Rural Health Clinics, Sexually Transmitted Disease Clinics, 001 General Practice, 002 Family Medicine, 005 Primary Care - Physician Assistant, 006 Primary Care - Nurse Practitioner, 016 Gynecology (OB/GYN)","Planned Parenthood of the Rocky Mountains, Inc.", Rural Health Clinics,195 S Main St,Longmont,CO,Boulder,80501-6218,"CON001, CON002",Friday,"Planned Parenthood of the Rocky Mountains--Longmont: 195 S Main St, Longmont, CO, 80501-6218: Friday","195 S Main St, Longmont, CO, 80501-6218"
1881743631,Planned Parenthood of the Rocky Mountains--Longmont,Non-Physician,"Family Planning Providers, Rural Health Clinics, Sexually Transmitted Disease Clinics, 001 General Practice, 002 Family Medicine, 005 Primary Care - Physician Assistant, 006 Primary Care - Nurse Practitioner, 016 Gynecology (OB/GYN)","Planned Parenthood of the Rocky Mountains, Inc.", Sexually Transmitted Disease Clinics,195 S Main St,Longmont,CO,Boulder,80501-6218,"CON001, CON002",Friday,"Planned Parenthood of the Rocky Mountains--Longmont: 195 S Main St, Longmont, CO, 80501-6218: Friday","195 S Main St, Longmont, CO, 80501-6218"
1316233174,Independence Health Center at JCMH,Non-Physician,Federally Qualified Health Centers,"METRO COMMUNITY PROVIDER NETWORK, INC.",Federally Qualified Health Centers,4851 Independence St,Wheat Ridge,CO,Jefferson,80033-6715,CON003,Friday,"Independence Health Center at JCMH: 4851 Independence St, Wheat Ridge, CO, 80033-6715: Friday","4851 Independence St, Wheat Ridge, CO, 80033-6715"
1649605536,MCPN - Health &Wellness Center at the Asian Pacific Development Center,Non-Physician,"Community Mental Health Centers, 029 Psychiatry, 102 Licensed Clinical Social Workers, 103 Psychology","METRO COMMUNITY PROVIDER NETWORK, INC.",Federally Qualified Health Centers,1537 Alton St,Aurora,CO,Adams,80010-1712,"CON001, CON005",Kaiser,"MCPN - Health &Wellness Center at the Asian Pacific Development Center: 1537 Alton St, Aurora, CO, 80010-1712: Kaiser","1537 Alton St, Aurora, CO, 80010-1712"
1790998953,Farmworker Health Services - Kit Carson County Health & Human Services,Non-Physician,"Family Planning Providers, Federally Qualified Health Centers","VALLEY WIDE HEALTH SYSTEMS, INC.",Federally Qualified Health Centers,252 S 14th St,Burlington,CO,Kit Carson,80807-2321,"CON001, CON005",Kaiser,"Farmworker Health Services - Kit Carson County Health & Human Services: 252 S 14th St, Burlington, CO, 80807-2321: Kaiser","252 S 14th St, Burlington, CO, 80807-2321"
1336245828,"Children's Hospital Colorado Orthopedic Care, Centennial",Non-Physician,Outpatient Hospital Clinics,Children's Hospital Colorado,Outpatient Hospital Clinics,9094 E Mineral Cir,Centennial,CO,Arapahoe,80112-7201,"CON001, CON005",Kaiser,"Children's Hospital Colorado Orthopedic Care, Centennial: 9094 E Mineral Cir, Centennial, CO, 80112-7201: Kaiser","9094 E Mineral Cir, Centennial, CO, 80112-7201"
1790998953,Cheyenne County Public Health Office,Non-Physician,"Family Planning Providers, Federally Qualified Health Centers","VALLEY WIDE HEALTH SYSTEMS, INC.",Federally Qualified Health Centers,615 N 5th St W,Cheyenne Wells,CO,Cheyenne,80810,CON003,Kaiser,"Cheyenne County Public Health Office: 615 N 5th St W, Cheyenne Wells, CO, 80810: Kaiser","615 N 5th St W, Cheyenne Wells, CO, 80810"
1164752812,Entrada School Based Health Center,Non-Physician,"Family Planning Providers, Federally Qualified Health Centers, 002 Family Medicine",PEAK VISTA COMMUNITY HEALTH CENTERS,Federally Qualified Health Centers,1740 Pepperwood Dr,Colorado Springs,CO,El Paso,80910-1525,"CON002, CON004",Kaiser,"Entrada School Based Health Center: 1740 Pepperwood Dr, Colorado Springs, CO, 80910-1525: Kaiser","1740 Pepperwood Dr, Colorado Springs, CO, 80910-1525"
1396048054,Logan Health Center at Myron Stratton,Non-Physician,"Family Planning Providers, Federally Qualified Health Centers, 002 Family Medicine",PEAK VISTA COMMUNITY HEALTH CENTERS,Federally Qualified Health Centers,430 Gold Pass Hts,Colorado Springs,CO,El Paso,80906-3501,"CON002, CON004",Kaiser,"Logan Health Center at Myron Stratton: 430 Gold Pass Hts, Colorado Springs, CO, 80906-3501: Kaiser","430 Gold Pass Hts, Colorado Springs, CO, 80906-3501"
1407150121,Moreno Health Center,Non-Physician,"Family Planning Providers, Federally Qualified Health Centers, 002 Family Medicine",PEAK VISTA COMMUNITY HEALTH CENTERS,Federally Qualified Health Centers,875 W Moreno Ave,Colorado Springs,CO,El Paso,80905-1731,"CON002, CON004",Kaiser,"Moreno Health Center: 875 W Moreno Ave, Colorado Springs, CO, 80905-1731: Kaiser","875 W Moreno Ave, Colorado Springs, CO, 80905-1731"
1881743631,Planned Parenthood of the Rocky Mountains - Granby,Non-Physician,"Family Planning Providers, Federally Qualified Health Centers, 000 OTHER","Planned Parenthood of the Rocky Mountains, Inc.",Family Planning Providers,236 Agate Ave.,Granby,CO,Grand,80446-0088,CON005,Kaiser,"Planned Parenthood of the Rocky Mountains - Granby: 236 Agate Ave., Granby, CO, 80446-0088: Kaiser","236 Agate Ave., Granby, CO, 80446-0088"
1881743631,Planned Parenthood of the Rocky Mountains - Granby,Non-Physician,"Family Planning Providers, Federally Qualified Health Centers, 000 OTHER","Planned Parenthood of the Rocky Mountains, Inc.", Sexually Transmitted Disease Clinics,236 Agate Ave.,Granby,CO,Grand,80446-0088,CON005,Kaiser,"Planned Parenthood of the Rocky Mountains - Granby: 236 Agate Ave., Granby, CO, 80446-0088: Kaiser","236 Agate Ave., Granby, CO, 80446-0088"
1790998953,Farmworker Health Services Clinic - Grand Junction,Non-Physician,"Family Planning Providers, Federally Qualified Health Centers","VALLEY WIDE HEALTH SYSTEMS, INC.",Federally Qualified Health Centers,2333 N 6th St,Grand Junction,CO,Mesa,81501-2001,CON005,Kaiser,"Farmworker Health Services Clinic - Grand Junction: 2333 N 6th St, Grand Junction, CO, 81501-2001: Kaiser","2333 N 6th St, Grand Junction, CO, 81501-2001"
1881743631,Planned Parenthood of the Rocky Mountains--Greeley,Non-Physician,"Family Planning Providers, Federally Qualified Health Centers, 000 OTHER","Planned Parenthood of the Rocky Mountains, Inc.",Family Planning Providers,3487 W 10th St,Greeley,CO,Weld,80634-5361,CON003,Kaiser,"Planned Parenthood of the Rocky Mountains--Greeley: 3487 W 10th St, Greeley, CO, 80634-5361: Kaiser","3487 W 10th St, Greeley, CO, 80634-5361"
1881743631,Planned Parenthood of the Rocky Mountains--Greeley,Non-Physician,"Family Planning Providers, Federally Qualified Health Centers, 000 OTHER","Planned Parenthood of the Rocky Mountains, Inc.", Sexually Transmitted Disease Clinics,3487 W 10th St,Greeley,CO,Weld,80634-5361,CON003,Kaiser,"Planned Parenthood of the Rocky Mountains--Greeley: 3487 W 10th St, Greeley, CO, 80634-5361: Kaiser","3487 W 10th St, Greeley, CO, 80634-5361"
1205255304,Health Center at Kiowa,Non-Physician,"Family Planning Providers, 002 Family Medicine",PEAK VISTA COMMUNITY HEALTH CENTERS,Federally Qualified Health Centers,320 Comanche St,Kiowa,CO,Elbert,80117,"CON001, CON005",Kaiser,"Health Center at Kiowa: 320 Comanche St, Kiowa, CO, 80117: Kaiser","320 Comanche St, Kiowa, CO, 80117"
1205122066,MCPN Arapahoe Douglas Health Center,Non-Physician,"Community Mental Health Centers, 029 Psychiatry, 102 Licensed Clinical Social Workers, 103 Psychology","METRO COMMUNITY PROVIDER NETWORK, INC.",Federally Qualified Health Centers,61 W Davies Ave N,Littleton,CO,Arapahoe,80120-5252,"CON001, CON005",Kaiser,"MCPN Arapahoe Douglas Health Center: 61 W Davies Ave N, Littleton, CO, 80120-5252: Kaiser","61 W Davies Ave N, Littleton, CO, 80120-5252"
1881743631,Planned Parenthood of the Rocky Mountains--Longmont,Non-Physician,"Family Planning Providers, Federally Qualified Health Centers, 000 OTHER","Planned Parenthood of the Rocky Mountains, Inc.",Family Planning Providers,195 S Main St,Longmont,CO,Boulder,80501-6218,"CON001, CON003, CON005",Kaiser,"Planned Parenthood of the Rocky Mountains--Longmont: 195 S Main St, Longmont, CO, 80501-6218: Kaiser","195 S Main St, Longmont, CO, 80501-6218"
1881743631,Planned Parenthood of the Rocky Mountains--Longmont,Non-Physician,"Family Planning Providers, Federally Qualified Health Centers, 000 OTHER","Planned Parenthood of the Rocky Mountains, Inc.", Rural Health Clinics,195 S Main St,Longmont,CO,Boulder,80501-6218,"CON001, CON003, CON005",Kaiser,"Planned Parenthood of the Rocky Mountains--Longmont: 195 S Main St, Longmont, CO, 80501-6218: Kaiser","195 S Main St, Longmont, CO, 80501-6218"
1881743631,Planned Parenthood of the Rocky Mountains--Longmont,Non-Physician,"Family Planning Providers, Federally Qualified Health Centers, 000 OTHER","Planned Parenthood of the Rocky Mountains, Inc.", Sexually Transmitted Disease Clinics,195 S Main St,Longmont,CO,Boulder,80501-6218,"CON001, CON003, CON005",Kaiser,"Planned Parenthood of the Rocky Mountains--Longmont: 195 S Main St, Longmont, CO, 80501-6218: Kaiser","195 S Main St, Longmont, CO, 80501-6218"
1881743631,Planned Parenthood of the Rocky Mountains--Parker Express,Non-Physician,"Family Planning Providers, Federally Qualified Health Centers, 000 OTHER","Planned Parenthood of the Rocky Mountains, Inc.",Family Planning Providers,12543 N State Highway 83,Parker,CO,Douglas,80134-8800,"CON001, CON005",Kaiser,"Planned Parenthood of the Rocky Mountains--Parker Express: 12543 N State Highway 83, Parker, CO, 80134-8800: Kaiser","12543 N State Highway 83, Parker, CO, 80134-8800"
1881743631,Planned Parenthood of the Rocky Mountains--Parker Express,Non-Physician,"Family Planning Providers, Federally Qualified Health Centers, 000 OTHER","Planned Parenthood of the Rocky Mountains, Inc.", Rural Health Clinics,12543 N State Highway 83,Parker,CO,Douglas,80134-8800,"CON001, CON005",Kaiser,"Planned Parenthood of the Rocky Mountains--Parker Express: 12543 N State Highway 83, Parker, CO, 80134-8800: Kaiser","12543 N State Highway 83, Parker, CO, 80134-8800"
1881743631,Planned Parenthood of the Rocky Mountains--Parker Express,Non-Physician,"Family Planning Providers, Federally Qualified Health Centers, 000 OTHER","Planned Parenthood of the Rocky Mountains, Inc.", Sexually Transmitted Disease Clinics,12543 N State Highway 83,Parker,CO,Douglas,80134-8800,"CON001, CON005",Kaiser,"Planned Parenthood of the Rocky Mountains--Parker Express: 12543 N State Highway 83, Parker, CO, 80134-8800: Kaiser","12543 N State Highway 83, Parker, CO, 80134-8800"
1619224987,Falcon Peak School Based Health Center,Non-Physician,"Family Planning Providers, Federally Qualified Health Centers, 002 Family Medicine",PEAK VISTA COMMUNITY HEALTH CENTERS,Federally Qualified Health Centers,12050 Falcon Hwy,Peyton,CO,El Paso,80831-8076,"CON002, CON004",Kaiser,"Falcon Peak School Based Health Center: 12050 Falcon Hwy, Peyton, CO, 80831-8076: Kaiser","12050 Falcon Hwy, Peyton, CO, 80831-8076"
1316233174,Independence Health Center at JCMH,Non-Physician,"Community Mental Health Centers, 029 Psychiatry, 102 Licensed Clinical Social Workers, 103 Psychology","METRO COMMUNITY PROVIDER NETWORK, INC.",Federally Qualified Health Centers,4851 Independence St,Wheat Ridge,CO,Jefferson,80033-6715,"CON001, CON005",Kaiser,"Independence Health Center at JCMH: 4851 Independence St, Wheat Ridge, CO, 80033-6715: Kaiser","4851 Independence St, Wheat Ridge, CO, 80033-6715"
1750660726,SUNRISE SUMMITSTONE CLINIC,Non-Physician,"Community Mental Health Centers, 029 Psychiatry, 102 Licensed Clinical Social Workers, 103 Psychology",SUNRISE COMMUNITY HEALTH,Federally Qualified Health Centers,1250 N Wilson Ave,Loveland,CO,Larimer,80537-4461,CON003,Kaiser,"SUNRISE SUMMITSTONE CLINIC: 1250 N Wilson Ave, Loveland, CO, 80537-4461: Kaiser","1250 N Wilson Ave, Loveland, CO, 80537-4461"
1013911437,Northeast Colorado Health Department,Non-Physician,000 OTHER,Northeast Colorado Health Department,Family Planning Providers,77 Main Ave,Akron,CO,Washington,80720-1439,"CON001, CON002",RMHP,"Northeast Colorado Health Department: 77 Main Ave, Akron, CO, 80720-1439: RMHP","77 Main Ave, Akron, CO, 80720-1439"
1881743631,Planned Parenthood of the Rocky Mountains - Alamosa,Physician,016 Gynecology (OB/GYN),"Planned Parenthood of the Rocky Mountains, Inc.",Family Planning Providers,1560 12th St,Alamosa,CO,Alamosa,81101-3709,"CON001, CON002",RMHP,"Planned Parenthood of the Rocky Mountains - Alamosa: 1560 12th St, Alamosa, CO, 81101-3709: RMHP","1560 12th St, Alamosa, CO, 81101-3709"
1881743631,Planned Parenthood of the Rocky Mountains - Alamosa,Physician,016 Gynecology (OB/GYN),"Planned Parenthood of the Rocky Mountains, Inc.", Rural Health Clinics,1560 12th St,Alamosa,CO,Alamosa,81101-3709,"CON001, CON002",RMHP,"Planned Parenthood of the Rocky Mountains - Alamosa: 1560 12th St, Alamosa, CO, 81101-3709: RMHP","1560 12th St, Alamosa, CO, 81101-3709"
1881743631,Planned Parenthood of the Rocky Mountains - Alamosa,Physician,016 Gynecology (OB/GYN),"Planned Parenthood of the Rocky Mountains, Inc.", Sexually Transmitted Disease Clinics,1560 12th St,Alamosa,CO,Alamosa,81101-3709,"CON001, CON002",RMHP,"Planned Parenthood of the Rocky Mountains - Alamosa: 1560 12th St, Alamosa, CO, 81101-3709: RMHP","1560 12th St, Alamosa, CO, 81101-3709"
1205957032,Community Health Services Inc. Family Planning Program,Physician,016 Gynecology (OB/GYN),Community Health Services Inc.,Family Planning Providers,405 Castle Creek Rd,Aspen,CO,Pitkin,81611-3125,"CON001, CON002",RMHP,"Community Health Services Inc. Family Planning Program: 405 Castle Creek Rd, Aspen, CO, 81611-3125: RMHP","405 Castle Creek Rd, Aspen, CO, 81611-3125"
1730295296,Rocky Mountain Youth Clinics - Crawford,Physician,101 Pediatrics - Routine/Primary Care,Rocky Mountain Youth Clinics,101 Pediatrics - Routine/Primary Care,1600 Florence St,Aurora,CO,Adams,80010-2130,"CON001, CON002, CON003, CON004",RMHP,"Rocky Mountain Youth Clinics - Crawford: 1600 Florence St, Aurora, CO, 80010-2130: RMHP","1600 Florence St, Aurora, CO, 80010-2130"
1821010448,AVONDALE CLINIC,Physician,002 Family Medicine,PUEBLO COMMUNITY HEALTH CENTER,Federally Qualified Health Centers,328 Avondale Blvd,Avondale,CO,Pueblo,81022-8700,"CON001, CON002",RMHP,"AVONDALE CLINIC: 328 Avondale Blvd, Avondale, CO, 81022-8700: RMHP","328 Avondale Blvd, Avondale, CO, 81022-8700"
1487803383,Beacon Center for Infectious Diseases (ryan white providers),Physician,017 Infectious Diseases,Boulder Community Health (Hospital),Ryan White Providers,4800 Riverbend Rd,Boulder,CO,Boulder,80301-2636,"CON001, CON002, CON003, CON004",RMHP,"Beacon Center for Infectious Diseases (ryan white providers): 4800 Riverbend Rd, Boulder, CO, 80301-2636: RMHP","4800 Riverbend Rd, Boulder, CO, 80301-2636"
1639595986,School Based Health Center - Summit High School,Physician,000 OTHER,"Summit Community Care Clinic, Inc.", Family Planning Providers,16201 Hwy 9,Breckenridge,CO,Summit,80424,"CON001, CON002",RMHP,"School Based Health Center - Summit High School: 16201 Hwy 9, Breckenridge, CO, 80424: RMHP","16201 Hwy 9, Breckenridge, CO, 80424"
1639595986,School Based Health Center - Summit High School,Physician,000 OTHER,"Summit Community Care Clinic, Inc.", Federally Qualified Health Centers,16201 Hwy 9,Breckenridge,CO,Summit,80424,"CON001, CON002",RMHP,"School Based Health Center - Summit High School: 16201 Hwy 9, Breckenridge, CO, 80424: RMHP","16201 Hwy 9, Breckenridge, CO, 80424"
1790998953,Farmworker Health Services - Kit Carson County Health & Human Services,Non-Physician,000 OTHER,"VALLEY WIDE HEALTH SYSTEMS, INC.",Federally Qualified Health Centers,252 S 14th St,Burlington,CO,Kit Carson,80807-2321,"CON001, CON002",RMHP,"Farmworker Health Services - Kit Carson County Health & Human Services: 252 S 14th St, Burlington, CO, 80807-2321: RMHP","252 S 14th St, Burlington, CO, 80807-2321"
1336245828,"Children's Hospital Colorado Orthopedic Care, Centennial",Physician,000 OTHER,Children's Hospital Colorado,Outpatient Hospital Clinics,9094 E Mineral Cir,Centennial,CO,Arapahoe,80112-7201,"CON001, CON002, CON003, CON004",RMHP,"Children's Hospital Colorado Orthopedic Care, Centennial: 9094 E Mineral Cir, Centennial, CO, 80112-7201: RMHP","9094 E Mineral Cir, Centennial, CO, 80112-7201"
1790998953,Cheyenne County Public Health Office,Physician,000 OTHER,"VALLEY WIDE HEALTH SYSTEMS, INC.",Federally Qualified Health Centers,615 N 5th St W,Cheyenne Wells,CO,Cheyenne,80810,"CON001, CON002",RMHP,"Cheyenne County Public Health Office: 615 N 5th St W, Cheyenne Wells, CO, 80810: RMHP","615 N 5th St W, Cheyenne Wells, CO, 80810"
1801297593,Community Reach Center Salud,Physician,000 OTHER,"PLAN DE SALUD DEL VALLE, INC.",Federally Qualified Health Centers,4371 E 72nd Ave,Commerce City,CO,Adams,80022-1471,"CON001, CON002, CON003, CON004",RMHP,"Community Reach Center Salud: 4371 E 72nd Ave, Commerce City, CO, 80022-1471: RMHP","4371 E 72nd Ave, Commerce City, CO, 80022-1471"
1881743631,Planned Parenthood of the Rocky Mountains--Cortez,Physician,016 Gynecology (OB/GYN),"Planned Parenthood of the Rocky Mountains, Inc.",Family Planning Providers,20 W North St,Cortez,CO,Montezuma,81321-3117,"CON001, CON002, CON003, CON004",RMHP,"Planned Parenthood of the Rocky Mountains--Cortez: 20 W North St, Cortez, CO, 81321-3117: RMHP","20 W North St, Cortez, CO, 81321-3117"
1881743631,Planned Parenthood of the Rocky Mountains--Cortez,Physician,016 Gynecology (OB/GYN),"Planned Parenthood of the Rocky Mountains, Inc.", Rural Health Clinics,20 W North St,Cortez,CO,Montezuma,81321-3117,"CON001, CON002, CON003, CON004",RMHP,"Planned Parenthood of the Rocky Mountains--Cortez: 20 W North St, Cortez, CO, 81321-3117: RMHP","20 W North St, Cortez, CO, 81321-3117"
1881743631,Planned Parenthood of the Rocky Mountains--Cortez,Physician,016 Gynecology (OB/GYN),"Planned Parenthood of the Rocky Mountains, Inc.", Sexually Transmitted Disease Clinics,20 W North St,Cortez,CO,Montezuma,81321-3117,"CON001, CON002, CON003, CON004",RMHP,"Planned Parenthood of the Rocky Mountains--Cortez: 20 W North St, Cortez, CO, 81321-3117: RMHP","20 W North St, Cortez, CO, 81321-3117"
1730295296,Rocky Mountain Youth Clinics - Southwest Open School,Non-Physician,101 Pediatrics - Routine/Primary Care,Rocky Mountain Youth Clinics,101 Pediatrics - Routine/Primary Care,401 N Dolores Rd,Cortez,CO,Montezuma,81321-4213,"CON001, CON002, CON003, CON004",RMHP,"Rocky Mountain Youth Clinics - Southwest Open School: 401 N Dolores Rd, Cortez, CO, 81321-4213: RMHP","401 N Dolores Rd, Cortez, CO, 81321-4213"
1578720918,Teller County Public Health Department,Non-Physician,000 OTHER,Teller County Public Health Department,Family Planning Providers,166 E Bennett Ave,Cripple Creek,CO,Teller,80813,"CON001, CON002, CON003, CON004",RMHP,"Teller County Public Health Department: 166 E Bennett Ave, Cripple Creek, CO, 80813: RMHP","166 E Bennett Ave, Cripple Creek, CO, 80813"
1578720918,Teller County Public Health Department,Non-Physician,000 OTHER,Teller County Public Health Department, Sexually Transmitted Disease Clinics,166 E Bennett Ave,Cripple Creek,CO,Teller,80813,"CON001, CON002, CON003, CON004",RMHP,"Teller County Public Health Department: 166 E Bennett Ave, Cripple Creek, CO, 80813: RMHP","166 E Bennett Ave, Cripple Creek, CO, 80813"
1770512964,Delta County Health Department,Non-Physician,000 OTHER,Delta County Health Department,Family Planning Providers,255 W 6th St,Delta,CO,Delta,81416-1626,"CON001, CON002, CON003, CON004",RMHP,"Delta County Health Department: 255 W 6th St, Delta, CO, 81416-1626: RMHP","255 W 6th St, Delta, CO, 81416-1626"
1770512964,Delta County Health Department,Non-Physician,000 OTHER,Delta County Health Department, Sexually Transmitted Disease Clinics,255 W 6th St,Delta,CO,Delta,81416-1626,"CON001, CON002, CON003, CON004",RMHP,"Delta County Health Department: 255 W 6th St, Delta, CO, 81416-1626: RMHP","255 W 6th St, Delta, CO, 81416-1626"
1770512964,Delta County Health Department,Non-Physician,000 OTHER,Delta County Health Department, Tuberculosis Clinics,255 W 6th St,Delta,CO,Delta,81416-1626,"CON001, CON002, CON003, CON004",RMHP,"Delta County Health Department: 255 W 6th St, Delta, CO, 81416-1626: RMHP","255 W 6th St, Delta, CO, 81416-1626"
1588080956,School Based Health Center - Dillon Valley Elementary,Physician,000 OTHER,"Summit Community Care Clinic, Inc.", Family Planning Providers,108 Deerpath Rd,Dillon,CO,Summit,80435,"CON001, CON002",RMHP,"School Based Health Center - Dillon Valley Elementary: 108 Deerpath Rd, Dillon, CO, 80435: RMHP","108 Deerpath Rd, Dillon, CO, 80435"
1588080956,School Based Health Center - Dillon Valley Elementary,Physician,000 OTHER,"Summit Community Care Clinic, Inc.", Federally Qualified Health Centers,108 Deerpath Rd,Dillon,CO,Summit,80435,"CON001, CON002",RMHP,"School Based Health Center - Dillon Valley Elementary: 108 Deerpath Rd, Dillon, CO, 80435: RMHP","108 Deerpath Rd, Dillon, CO, 80435"
1376754259,Eagle County Public Health,Non-Physician,000 OTHER,Eagle County Health and Human Services,Family Planning Providers,551 Broadway,Eagle,CO,Eagle,81631,"CON001, CON002",RMHP,"Eagle County Public Health: 551 Broadway, Eagle, CO, 81631: RMHP","551 Broadway, Eagle, CO, 81631"
1811295264,KIDS CARE CLINIC,Physician,002 Family Medicine,SUNRISE COMMUNITY HEALTH,Federally Qualified Health Centers,1400 37th St,Evans,CO,Weld,80620-1906,"CON001, CON002",RMHP,"KIDS CARE CLINIC: 1400 37th St, Evans, CO, 80620-1906: RMHP","1400 37th St, Evans, CO, 80620-1906"
1013911437,Northeast Colorado Health Department,Non-Physician,000 OTHER,Northeast Colorado Health Department,Family Planning Providers,228 W Railroad Ave,Fort Morgan,CO,Morgan,80701-2324,"CON001, CON002",RMHP,"Northeast Colorado Health Department: 228 W Railroad Ave, Fort Morgan, CO, 80701-2324: RMHP","228 W Railroad Ave, Fort Morgan, CO, 80701-2324"
1437575792,School Based Health Center - Summit Middle School,Physician,000 OTHER,"Summit Community Care Clinic, Inc.", Family Planning Providers,158 School Rd,Frisco,CO,Summit,80443,"CON001, CON002",RMHP,"School Based Health Center - Summit Middle School: 158 School Rd, Frisco, CO, 80443: RMHP","158 School Rd, Frisco, CO, 80443"
1437575792,School Based Health Center - Summit Middle School,Physician,000 OTHER,"Summit Community Care Clinic, Inc.", Federally Qualified Health Centers,158 School Rd,Frisco,CO,Summit,80443,"CON001, CON002",RMHP,"School Based Health Center - Summit Middle School: 158 School Rd, Frisco, CO, 80443: RMHP","158 School Rd, Frisco, CO, 80443"
1881743631,Planned Parenthood of the Rocky Mountains - Granby,Physician,016 Gynecology (OB/GYN),"Planned Parenthood of the Rocky Mountains, Inc.",Family Planning Providers,236 Agate Ave.,Granby,CO,Grand,80446-0088,"CON001, CON002",RMHP,"Planned Parenthood of the Rocky Mountains - Granby: 236 Agate Ave., Granby, CO, 80446-0088: RMHP","236 Agate Ave., Granby, CO, 80446-0088"
1881743631,Planned Parenthood of the Rocky Mountains - Granby,Physician,016 Gynecology (OB/GYN),"Planned Parenthood of the Rocky Mountains, Inc.", Sexually Transmitted Disease Clinics,236 Agate Ave.,Granby,CO,Grand,80446-0088,"CON001, CON002",RMHP,"Planned Parenthood of the Rocky Mountains - Granby: 236 Agate Ave., Granby, CO, 80446-0088: RMHP","236 Agate Ave., Granby, CO, 80446-0088"
1790998953,Farmworker Health Services Clinic - Grand Junction,Physician,000 OTHER,"VALLEY WIDE HEALTH SYSTEMS, INC.",Federally Qualified Health Centers,2333 N 6th St,Grand Junction,CO,Mesa,81501-2001,"CON001, CON002, CON003, CON004",RMHP,"Farmworker Health Services Clinic - Grand Junction: 2333 N 6th St, Grand Junction, CO, 81501-2001: RMHP","2333 N 6th St, Grand Junction, CO, 81501-2001"
1699716027,St. Mary's Family Medicine,Physician,017 Infectious Diseases,St. Mary's Hospital and Medical Center,Ryan White Providers,2698 Patterson Rd,Grand Junction,CO,Mesa,81506-8818,"CON001, CON002, CON003, CON004",RMHP,"St. Mary's Family Medicine: 2698 Patterson Rd, Grand Junction, CO, 81506-8818: RMHP","2698 Patterson Rd, Grand Junction, CO, 81506-8818"
1295041598,SUNRISE NORTH RANGE CLINIC,Physician,002 Family Medicine,SUNRISE COMMUNITY HEALTH,Federally Qualified Health Centers,1300 N 17th Ave,Greeley,CO,Weld,80631-9584,"CON001, CON002",RMHP,"SUNRISE NORTH RANGE CLINIC: 1300 N 17th Ave, Greeley, CO, 80631-9584: RMHP","1300 N 17th Ave, Greeley, CO, 80631-9584"
1316244692,WELD COUNTY HEALTH DEPT. PRENATAL CLINIC,Physician,002 Family Medicine,SUNRISE COMMUNITY HEALTH,Federally Qualified Health Centers,1551 N 17th Ave,Greeley,CO,Weld,80631-9400,"CON001, CON002",RMHP,"WELD COUNTY HEALTH DEPT. PRENATAL CLINIC: 1551 N 17th Ave, Greeley, CO, 80631-9400: RMHP","1551 N 17th Ave, Greeley, CO, 80631-9400"
1881743631,Planned Parenthood of the Rocky Mountains--Greeley,Physician,016 Gynecology (OB/GYN),"Planned Parenthood of the Rocky Mountains, Inc.",Family Planning Providers,3487 W 10th St,Greeley,CO,Weld,80634-5361,"CON001, CON002",RMHP,"Planned Parenthood of the Rocky Mountains--Greeley: 3487 W 10th St, Greeley, CO, 80634-5361: RMHP","3487 W 10th St, Greeley, CO, 80634-5361"
1881743631,Planned Parenthood of the Rocky Mountains--Greeley,Physician,016 Gynecology (OB/GYN),"Planned Parenthood of the Rocky Mountains, Inc.", Sexually Transmitted Disease Clinics,3487 W 10th St,Greeley,CO,Weld,80634-5361,"CON001, CON002",RMHP,"Planned Parenthood of the Rocky Mountains--Greeley: 3487 W 10th St, Greeley, CO, 80634-5361: RMHP","3487 W 10th St, Greeley, CO, 80634-5361"
1013911437,Northeast Colorado Health Department,Non-Physician,000 OTHER,Northeast Colorado Health Department,Family Planning Providers,127 E Denver St,Holyoke,CO,Phillips,80734-1553,"CON001, CON002",RMHP,"Northeast Colorado Health Department: 127 E Denver St, Holyoke, CO, 80734-1553: RMHP","127 E Denver St, Holyoke, CO, 80734-1553"
1013911437,Northeast Colorado Health Department,Non-Physician,000 OTHER,Northeast Colorado Health Department,Family Planning Providers,118 W 3rd St,Julesburg,CO,Sedgwick,80737-1542,"CON001, CON002",RMHP,"Northeast Colorado Health Department: 118 W 3rd St, Julesburg, CO, 80737-1542: RMHP","118 W 3rd St, Julesburg, CO, 80737-1542"
1205255304,Health Center at Kiowa,Physician,002 Family Medicine,PEAK VISTA COMMUNITY HEALTH CENTERS,Federally Qualified Health Centers,320 Comanche St,Kiowa,CO,Elbert,80117,"CON001, CON002, CON003, CON004",RMHP,"Health Center at Kiowa: 320 Comanche St, Kiowa, CO, 80117: RMHP","320 Comanche St, Kiowa, CO, 80117"
1437533031,Lake School Based Health Center,Physician,000 OTHER,"Summit Community Care Clinic, Inc.", Family Planning Providers,1000 W 4th St,Leadville,CO,Lake,80461-3800,"CON001, CON002",RMHP,"Lake School Based Health Center: 1000 W 4th St, Leadville, CO, 80461-3800: RMHP","1000 W 4th St, Leadville, CO, 80461-3800"
1437533031,Lake School Based Health Center,Physician,000 OTHER,"Summit Community Care Clinic, Inc.", Federally Qualified Health Centers,1000 W 4th St,Leadville,CO,Lake,80461-3800,"CON001, CON002",RMHP,"Lake School Based Health Center: 1000 W 4th St, Leadville, CO, 80461-3800: RMHP","1000 W 4th St, Leadville, CO, 80461-3800"
1881743631,Planned Parenthood of the Rocky Mountains--Longmont,Physician,016 Gynecology (OB/GYN),"Planned Parenthood of the Rocky Mountains, Inc.",Family Planning Providers,195 S Main St,Longmont,CO,Boulder,80501-6218,"CON001, CON002",RMHP,"Planned Parenthood of the Rocky Mountains--Longmont: 195 S Main St, Longmont, CO, 80501-6218: RMHP","195 S Main St, Longmont, CO, 80501-6218"
1881743631,Planned Parenthood of the Rocky Mountains--Longmont,Physician,016 Gynecology (OB/GYN),"Planned Parenthood of the Rocky Mountains, Inc.", Rural Health Clinics,195 S Main St,Longmont,CO,Boulder,80501-6218,"CON001, CON002",RMHP,"Planned Parenthood of the Rocky Mountains--Longmont: 195 S Main St, Longmont, CO, 80501-6218: RMHP","195 S Main St, Longmont, CO, 80501-6218"
1881743631,Planned Parenthood of the Rocky Mountains--Longmont,Physician,016 Gynecology (OB/GYN),"Planned Parenthood of the Rocky Mountains, Inc.", Sexually Transmitted Disease Clinics,195 S Main St,Longmont,CO,Boulder,80501-6218,"CON001, CON002",RMHP,"Planned Parenthood of the Rocky Mountains--Longmont: 195 S Main St, Longmont, CO, 80501-6218: RMHP","195 S Main St, Longmont, CO, 80501-6218"
1750660726,SUNRISE SUMMITSTONE CLINIC,Physician,002 Family Medicine,SUNRISE COMMUNITY HEALTH,Federally Qualified Health Centers,1250 N Wilson Ave,Loveland,CO,Larimer,80537-4461,"CON001, CON002",RMHP,"SUNRISE SUMMITSTONE CLINIC: 1250 N Wilson Ave, Loveland, CO, 80537-4461: RMHP","1250 N Wilson Ave, Loveland, CO, 80537-4461"
1881681104,Moffat Family Health Center,Physician,002 Family Medicine,"VALLEY WIDE HEALTH SYSTEMS, INC.",Federally Qualified Health Centers,545 Moffat Way,Moffat,CO,Saguache,81143,"CON001, CON002",RMHP,"Moffat Family Health Center: 545 Moffat Way, Moffat, CO, 81143: RMHP","545 Moffat Way, Moffat, CO, 81143"
1881743631,Planned Parenthood of the Rocky Mountains--Parker Express,Physician,016 Gynecology (OB/GYN),"Planned Parenthood of the Rocky Mountains, Inc.",Family Planning Providers,12543 N State Highway 83,Parker,CO,Douglas,80134-8800,"CON001, CON002, CON003, CON004",RMHP,"Planned Parenthood of the Rocky Mountains--Parker Express: 12543 N State Highway 83, Parker, CO, 80134-8800: RMHP","12543 N State Highway 83, Parker, CO, 80134-8800"
1881743631,Planned Parenthood of the Rocky Mountains--Parker Express,Physician,016 Gynecology (OB/GYN),"Planned Parenthood of the Rocky Mountains, Inc.", Rural Health Clinics,12543 N State Highway 83,Parker,CO,Douglas,80134-8800,"CON001, CON002, CON003, CON004",RMHP,"Planned Parenthood of the Rocky Mountains--Parker Express: 12543 N State Highway 83, Parker, CO, 80134-8800: RMHP","12543 N State Highway 83, Parker, CO, 80134-8800"
1881743631,Planned Parenthood of the Rocky Mountains--Parker Express,Physician,016 Gynecology (OB/GYN),"Planned Parenthood of the Rocky Mountains, Inc.", Sexually Transmitted Disease Clinics,12543 N State Highway 83,Parker,CO,Douglas,80134-8800,"CON001, CON002, CON003, CON004",RMHP,"Planned Parenthood of the Rocky Mountains--Parker Express: 12543 N State Highway 83, Parker, CO, 80134-8800: RMHP","12543 N State Highway 83, Parker, CO, 80134-8800"
1144589425,GRAND AVENUE HOMELESS CLINIC,Physician,002 Family Medicine,PUEBLO COMMUNITY HEALTH CENTER,Federally Qualified Health Centers,1008 N Grand Ave,Pueblo,CO,Pueblo,81003-2916,"CON001, CON002",RMHP,"GRAND AVENUE HOMELESS CLINIC: 1008 N Grand Ave, Pueblo, CO, 81003-2916: RMHP","1008 N Grand Ave, Pueblo, CO, 81003-2916"
1881743631,Planned Parenthood of the Rocky Mountains--Salida,Physician,016 Gynecology (OB/GYN),"Planned Parenthood of the Rocky Mountains, Inc.",Family Planning Providers,233 E 2nd St,Salida,CO,Chaffee,81201-2116,"CON001, CON002",RMHP,"Planned Parenthood of the Rocky Mountains--Salida: 233 E 2nd St, Salida, CO, 81201-2116: RMHP","233 E 2nd St, Salida, CO, 81201-2116"
1881743631,Planned Parenthood of the Rocky Mountains--Salida,Physician,016 Gynecology (OB/GYN),"Planned Parenthood of the Rocky Mountains, Inc.", Rural Health Clinics,233 E 2nd St,Salida,CO,Chaffee,81201-2116,"CON001, CON002",RMHP,"Planned Parenthood of the Rocky Mountains--Salida: 233 E 2nd St, Salida, CO, 81201-2116: RMHP","233 E 2nd St, Salida, CO, 81201-2116"
1881743631,Planned Parenthood of the Rocky Mountains--Salida,Physician,016 Gynecology (OB/GYN),"Planned Parenthood of the Rocky Mountains, Inc.", Sexually Transmitted Disease Clinics,233 E 2nd St,Salida,CO,Chaffee,81201-2116,"CON001, CON002",RMHP,"Planned Parenthood of the Rocky Mountains--Salida: 233 E 2nd St, Salida, CO, 81201-2116: RMHP","233 E 2nd St, Salida, CO, 81201-2116"
1821414293,School Based Health Center - Silverthorne Elementary,Physician,000 OTHER,"Summit Community Care Clinic, Inc.", Family Planning Providers,101 Hamilton Creek Rd,Silverthorne,CO,Summit,80498,"CON001, CON002",RMHP,"School Based Health Center - Silverthorne Elementary: 101 Hamilton Creek Rd, Silverthorne, CO, 80498: RMHP","101 Hamilton Creek Rd, Silverthorne, CO, 80498"
1821414293,School Based Health Center - Silverthorne Elementary,Physician,000 OTHER,"Summit Community Care Clinic, Inc.", Federally Qualified Health Centers,101 Hamilton Creek Rd,Silverthorne,CO,Summit,80498,"CON001, CON002",RMHP,"School Based Health Center - Silverthorne Elementary: 101 Hamilton Creek Rd, Silverthorne, CO, 80498: RMHP","101 Hamilton Creek Rd, Silverthorne, CO, 80498"
1881743631,Planned Parenthood of the Rocky Mountains - Steamboat Springs,Physician,016 Gynecology (OB/GYN),"Planned Parenthood of the Rocky Mountains, Inc.",Family Planning Providers,111 11th St,Steamboat Springs,CO,Routt,80477,"CON001, CON002, CON003, CON004",RMHP,"Planned Parenthood of the Rocky Mountains - Steamboat Springs: 111 11th St, Steamboat Springs, CO, 80477: RMHP","111 11th St, Steamboat Springs, CO, 80477"
1881743631,Planned Parenthood of the Rocky Mountains - Steamboat Springs,Physician,016 Gynecology (OB/GYN),"Planned Parenthood of the Rocky Mountains, Inc.", Rural Health Clinics,111 11th St,Steamboat Springs,CO,Routt,80477,"CON001, CON002, CON003, CON004",RMHP,"Planned Parenthood of the Rocky Mountains - Steamboat Springs: 111 11th St, Steamboat Springs, CO, 80477: RMHP","111 11th St, Steamboat Springs, CO, 80477"
1881743631,Planned Parenthood of the Rocky Mountains - Steamboat Springs,Physician,016 Gynecology (OB/GYN),"Planned Parenthood of the Rocky Mountains, Inc.", Sexually Transmitted Disease Clinics,111 11th St,Steamboat Springs,CO,Routt,80477,"CON001, CON002, CON003, CON004",RMHP,"Planned Parenthood of the Rocky Mountains - Steamboat Springs: 111 11th St, Steamboat Springs, CO, 80477: RMHP","111 11th St, Steamboat Springs, CO, 80477"
1013911437,Northeast Colorado Health Department,Non-Physician,000 OTHER,Northeast Colorado Health Dept,Family Planning Providers,700 Columbine St,Sterling,CO,Logan,80751-3728,"CON001, CON002",RMHP,"Northeast Colorado Health Department: 700 Columbine St, Sterling, CO, 80751-3728: RMHP","700 Columbine St, Sterling, CO, 80751-3728"
1588803050,Walsh Medical Clinic,Non-Physician,002 Family Medicine,Walsh Medical Clinic,Rural Health Clinics,137 S Kansas St,Walsh,CO,Baca,81090,"CON001, CON002",RMHP,"Walsh Medical Clinic: 137 S Kansas St, Walsh, CO, 81090: RMHP","137 S Kansas St, Walsh, CO, 81090"
1912349465,High Plains Wiley Clinic,Physician,000 OTHER,"HIGH PLAINS COMMUNITY HEALTH CENTER, INCORPORATED",Federally Qualified Health Centers,302 Main St,Wiley,CO,Prowers,81092,"CON001, CON002",RMHP,"High Plains Wiley Clinic: 302 Main St, Wiley, CO, 81092: RMHP","302 Main St, Wiley, CO, 81092"
1912349465,High Plains Wiley Clinic,Physician,000 OTHER,"HIGH PLAINS COMMUNITY HEALTH CENTER, INCORPORATED", Rural Health Clinics,302 Main St,Wiley,CO,Prowers,81092,"CON001, CON002",RMHP,"High Plains Wiley Clinic: 302 Main St, Wiley, CO, 81092: RMHP","302 Main St, Wiley, CO, 81092"
1013911437,Northeast Colorado Health Department,Non-Physician,000 OTHER,Northeast Colorado Health Department,Family Planning Providers,529 N Albany St,Yuma,CO,Yuma,80759-1526,"CON001, CON002",RMHP,"Northeast Colorado Health Department: 529 N Albany St, Yuma, CO, 80759-1526: RMHP","529 N Albany St, Yuma, CO, 80759-1526"
